"","NBN_ID","company_name","address","city","state","post","address_dr","post_dr"
"1",1,"Brandt, Jonathan F Esq","171 E 24th St","Leith","TA",7315,"171 E 24th St",7325
"2",2,"Landrum Temporary Services","22222 Acoma St","Proston","QL",4613,"22222 Acoma Street",4713
"3",3,"Inabinet, Macre Esq","534 Schoenborn St #51","Hamel","WA",6215,"534 Schoenborn St #51",7215
"4",4,"Morris Downing & Sherred","69206 Jackson Ave","Talmalmo","NS",2640,"69206 Jackson Ave",2640
"5",5,"Buelt, David L Esq","808 Glen Cove Ave","Lane Cove","NS",1595,"808 Glen Cove Ave",1595
"6",6,"Artesian Ice & Cold Storage Co","373 Lafayette St","Cartmeticup","WA",6316,"373 Lafayette St",6316
"7",7,"Midway Hotel","87 Sylvan Ave","Nyamup","WA",6258,"87 Sylvan Ave",6258
"8",8,"Selsor, Robert J Esq","60562 Ky Rt 321","Bendick Murrell","NS",2803,"60562 Ky Rt 321",2803
"9",9,"Vincent J Petti & Co","70 S 18th Pl","Purrawunda","QL",4356,"70 S 18th Pl",4356
"10",10,"Prentiss, Paul F Esq","8839 Ventura Blvd","Blanchetown","SA",5357,"8839 Ventura Blvd",5358
"11",11,"Public Works Department","3684 N Wacker Dr","Rockside","QL",4343,"3684 N Wacker Dr",4353
"12",12,"Prudential Lighting Corp","68828 S 32nd St #6","Rosegarland","TA",7140,"68828 S 32nd Street #6",7240
"13",13,"Wood, J Scott Esq","43157 Cypress St","Ringwood","QL",4343,"43157 Cypress St",5343
"14",14,"Swanson Peterson Fnrl Home Inc","6 S Hanover Ave","Maylands","WA",6931,"6 S Hanover Ave",6931
"15",15,"Old Cider Mill Grove","27916 Tarrytown Rd","Wooloowin","QL",4030,"27916 Tarrytown Rd",4030
"16",16,"Cooper Myers Y Co","79620 Timber Dr","Arthurville","NS",2820,"79620 Timber Dr",2820
"17",17,"Angelo International","387 Airway Cir #62","Mapleton","QL",4560,"387 Airway Cir #62",4560
"18",18,"Blackley, William J Pa","570 W Pine St","Tuggerawong","NS",2259,"570 W Pine St",2259
"19",19,"Phoenix Phototype","823 Fishers Ln","Red Hill","AC",2603,"823 Fishers Ln",2603
"20",20,"Quartzite Processing Inc","4 Brookcrest Dr #7786","Inverlaw","QL",4610,"4 Brookcrest Dr #7786",4611
"21",21,"Biltmore Textile Co Inc","72 Wyoming Ave","Eugowra","NS",2806,"72 Wyoming Ave",2816
"22",22,"Gateway Refrigeration","754 Sammis Ave","Kotara Fair","NS",2289,"754 Sammis Ave",2389
"23",23,"Anchorage Yamaha","660 N Green St","Burpengary","QL",4505,"660 N Green St",5505
"24",24,"Wynns Precision Inc Az Div","970 Waterloo Rd","Ellis Beach","QL",4879,"970 Waterloo Rd",4879
"25",25,"Paragon Cable Tv","4129 Abbott Dr","Fish Creek","VI",3959,"4129 Abbott Dr",3959
"26",26,"Eagle Computer Services Inc","1529 Prince Rodgers Ave","Kennedy","QL",4816,"1529 Prince Rodgers Ave",4816
"27",27,"Kansas Association Ins Agtts","2 N Valley Mills Dr","Cape Portland","TA",7264,"2 N Valley Mills Dr",7264
"28",28,"Di Giacomo, Richard F Esq","50968 Kurtz St #45","Warra","QL",4411,"50968 Kurtz St #45",4411
"29",29,"Butler, Frank B Esq","71585 S Ayon Ave #9","Wanguri","NT",810,"71585 S Ayon Ave #9",810
"30",30,"Alphagraphics Printshops","8 Old County Rd #3","Alvie","VI",3249,"8 Old County Rd #3",3250
"31",31,"Voyager Travel Service","13904 S 35th St","Wherrol Flat","NS",2429,"13904 S 35th St",2439
"32",32,"N Amer Plast & Chemls Co Inc","6149 Kapiolani Blvd #6","Placid Hills","QL",4343,"6149 Kapiolani Blvd #6",4443
"33",33,"D L Downing General Contr Inc","95431 34th Ave #62","Nedlands","WA",6909,"95431 34th Avenue #62",7909
"34",34,"Community Insurance Agy Inc","25 Swift Ave","Auchenflower","QL",4066,"25 Swift Ave",4066
"35",35,"House Of Ing","14304 Old Alexandria Ferry Rd","Buninyong","VI",3357,"14304 Old Alexandria Ferry Rd",3357
"36",36,"Vei Inc","1585 Salem Church Rd #59","Dangar Island","NS",2083,"1585 Salem Church Rd #59",2083
"37",37,"Hanna, Robert J Esq","75962 E Drinker St","Sunny Nook","QL",4605,"75962 E Drinker Street",4605
"38",38,"Design Rite Homes Inc","8978 W Henrietta Rd","Minden","QL",4311,"8978 W Henrietta Rd",4311
"39",39,"State Library","86 Worth St #272","Tibradden","WA",6532,"86 Worth St #272",6532
"40",40,"Vista Grande Baptist Church","15 Campville Rd #191","Clermont","QL",4721,"15 Campville Rd #191",4722
"41",41,"Poole Publications Inc","3 N Ridge Ave","Kadina","SA",5554,"3 N Ridge Ave",5564
"42",42,"Affilated Consulting Group Inc","3713 Poway Rd","Sawtell","NS",2452,"3713 Poway Rd",2552
"43",43,"Northwestern Mutual Life Ins","1 E 17th St","East Gosford","NS",2250,"1 E 17th St",3250
"44",44,"Barrett Burke Wilson Castl","5 Liberty Ave","Fosterville","VI",3557,"5 Liberty Ave",3557
"45",45,"Helricks Inc","404 Broxton Ave","Bateau Bay","NS",2261,"404 Broxton Ave",2261
"46",46,"Wynn, Mary Ellen Esq","4 S Main St #285","Glenmoral","QL",4719,"4 S Main St #285",4719
"47",47,"Mackraft Signs","1255 W Passaic St #1553","Bolivia","NS",2372,"1255 W Passaic Street #1553",2372
"48",48,"Ansaring Answering Service","377 Excalibur Dr","East Melbourne","VI",3002,"377 Excalibur Dr",3002
"49",49,"Joiner & Goudeau Law Offices","7 Wilshire Blvd","Taringa","QL",4068,"7 Wilshire Blvd",4068
"50",50,"Cox, J Thomas Jr","7 Hugh Wallis Rd","Koolan Island","WA",6733,"7 Hugh Wallis Rd",6734
"51",51,"Bill, Michael M","7177 E 14th St","Maleny","QL",4552,"7177 E 14th St",4562
"52",52,"A B C Tank Co","67765 W 11th St","Yelverton","WA",6280,"67765 W 11th Street",6380
"53",53,"Jolley, Mark A Cpa","99968 Merced St #79","Flinders","NS",2529,"99968 Merced St #79",3529
"54",54,"Melco Embroidery Systems","40 E 19th Ave","Empire Bay","NS",2257,"40 E 19th Ave",2257
"55",55,"Witchs Brew","84826 Plaza Dr","Rose Bay North","NS",2030,"84826 Plaza Dr",2030
"56",56,"Funding Equity Corp","20214 W Main St","Macks Creek","VI",3971,"20214 W Main St",3971
"57",57,"Saturn Of Delray","8039 Howard Ave","East Toowoomba","QL",4350,"8039 Howard Ave",4350
"58",58,"Motel 6","8 Austin Bluffs Pky","Bimbijy","WA",6472,"8 Austin Bluffs Pky",6472
"59",59,"Ultimate In Womens Apparel The","96605 Pioneer Rd","Kundabung","NS",2441,"96605 Pioneer Rd",2441
"60",60,"Ballinger, Maria Chan Esq","6 Hope Rd #10","Pinnacle","QL",4741,"6 Hope Rd #10",4742
"61",61,"N E Industrial Distr Inc","65898 E St Nw","Watsonville","QL",4887,"65898 E St Nw",4897
"62",62,"Joondeph, Jerome J Esq","39 Broad St","Seaforth","NS",2092,"39 Broad Street",2192
"63",63,"Art In Forms","654 Seguine Ave","White Hills","TA",7258,"654 Seguine Avenue",8258
"64",64,"Central Hudson Ent Corp","78 31st St","Bellangry","NS",2446,"78 31st St",2446
"65",65,"Marscher, William F Iii","35673 Annapolis Rd #190","Ascot","QL",4359,"35673 Annapolis Rd #190",4359
"66",66,"Smith, Sean O Esq","98247 Russell Blvd","Stafford Heights","QL",4053,"98247 Russell Blvd",4053
"67",67,"Maverik Country Stores Inc","3 S Willow St #82","Bygalorie","NS",2669,"3 S Willow Street #82",2669
"68",68,"United Christian Cmnty Crdt Un","199 Maple Ave","Boolaroo","NS",2284,"199 Maple Avenue",2284
"69",69,"Radecker, H Philip Jr","423 S Navajo St #56","Brookhill","QL",4816,"423 S Navajo St #56",4816
"70",70,"Cullen, Jack J Esq","5 30w W #3083","Hillston","NS",2675,"5 30w W #3083",2676
"71",71,"Kszl Am Radio","57245 W Union Blvd #25","Ivanhoe East","VI",3079,"57245 W Union Blvd #25",3089
"72",72,"Blewett, Yvonne S","971 Northwest Blvd","Caniambo","VI",3630,"971 NorthweStreet Blvd",3730
"73",73,"Sheraton Inn Atlanta Northwest","1089 Pacific Coast Hwy","Myrniong","VI",3341,"1089 Pacific Coast Hwy",4341
"74",74,"Preston, Anne M Esq","6787 Emerson St","Woolamai","VI",3995,"6787 Emerson St",3995
"75",75,"A & A Custom Rubber Stamps","8 Middletown Blvd #708","Wardering","WA",6311,"8 Middletown Blvd #708",6311
"76",76,"Hirsch, Walter W Esq","56 Tank Farm Rd","Kukerin","WA",6352,"56 Tank Farm Rd",6352
"77",77,"Jones, Peter B Esq","503 Fulford Ave","Somers","VI",3927,"503 Fulford Ave",3927
"78",78,"Sterling Institute","8275 Calle De Industrias","Wayatinah","TA",7140,"8275 Calle De Industrias",7140
"79",79,"Cross Western Store","92 South St","Alligator Creek","QL",4740,"92 South St",4740
"80",80,"Demer Normann Smith Ltd","56710 Euclid Ave","Camp Mountain","QL",4520,"56710 Euclid Ave",4521
"81",81,"Ny Stat Trial Lawyers Assn","5210 E Airy St #2","Brandy Creek","QL",4800,"5210 E Airy St #2",4810
"82",82,"Mann, Charles E Esq","31 Schuyler Ave","Sovereign Hill","VI",3350,"31 Schuyler Ave",3450
"83",83,"Airnetics Engineering Co","661 Plummer St #963","Arno Bay","SA",5603,"661 Plummer St #963",6603
"84",84,"American Pie Co Inc","1351 Simpson St","Maffra","VI",3860,"1351 Simpson St",3860
"85",85,"Brown Chiropractic","2391 Pacific Blvd","Ulverstone","TA",7315,"2391 Pacific Blvd",7315
"86",86,"Classic Video Duplication Inc","1886 2nd Ave","Wattle Hill","TA",7172,"1886 2nd Ave",7172
"87",87,"Mcclier Corp","52404 S Clinton Ave","Bower","SA",5374,"52404 S Clinton Ave",5374
"88",88,"Gormley Lore Murphy","405 W Lee St","Stonehaven","VI",3221,"405 W Lee St",3221
"89",89,"Thudium Mail Advg Company","5656 N Fiesta Blvd","East Newdegate","WA",6355,"5656 N Fiesta Blvd",6355
"90",90,"Jen E Distributing Co","9 Beverly Rd #5","Emerald","VI",3782,"9 Beverly Rd #5",3783
"91",91,"Re/max Realty Services","96 Armitage Ave","Katunga","VI",3640,"96 Armitage Ave",3650
"92",92,"Roundys Pole Fence Co","523 N Prince St","Willunga","SA",5172,"523 N Prince Street",5272
"93",93,"Chadds Ford Winery","6926 Orange Ave","Two Rocks","WA",6037,"6926 Orange Avenue",7037
"94",94,"Barragar, Anne L Esq","6940 Prospect Pl","Caldwell","NS",2710,"6940 Prospect Pl",2710
"95",95,"Kvoo Radio","52347 San Fernando Rd","Coppabella","QL",4741,"52347 San Fernando Rd",4741
"96",96,"Donovan, William P Esq","5399 Mcwhorter Rd","Calala","NS",2340,"5399 Mcwhorter Rd",2340
"97",97,"Overseas General Business Co","7 Hall St","Nambucca Heads","NS",2448,"7 Hall Street",2448
"98",98,"Nilad Machining","5 W Allen St","Mccullys Gap","NS",2333,"5 W Allen St",2333
"99",99,"Byrne, Beth Hobbs","15126 Goldenwest St","Toowoomba South","QL",4350,"15126 Goldenwest St",4350
"100",100,"Dileo, Lucille A Esq","94 I 55s S","Applecross","WA",6953,"94 I 55s S",6954
"101",101,"First Express","288 N 168th Ave #266","Camberwell West","VI",3124,"288 N 168th Ave #266",3134
"102",102,"Elbin Internatl Baskets","5 Richmond Ct","North Perth","WA",6906,"5 Richmond Ct",7006
"103",103,"Multiform Business Printing","28 Aaronwood Ave Ne","Coombell","NS",2470,"28 Aaronwood Avenue Ne",3470
"104",104,"Jin Shin Travel Agency","39701 6th Ave #1485","Pacific Heights","QL",4703,"39701 6th Ave #1485",4703
"105",105,"Electra Gear Divsn Regal","35662 S University Blvd","Guildford","WA",6935,"35662 S University Blvd",6935
"106",106,"Sparta Home Center","73 Dennison St #70","Herron","WA",6210,"73 Dennison St #70",6210
"107",107,"R A C E Enterprises Inc","9591 Bayshore Rd #637","Mirrool","NS",2665,"9591 Bayshore Rd #637",2665
"108",108,"Jersey Wholesale Fence Co Inc","57 N Weinbach Ave","Bundaberg West","QL",4670,"57 N Weinbach Avenue",4670
"109",109,"Ryan, Barry M Esq","286 Santa Rosa Ave","Lane Cove","NS",1595,"286 Santa Rosa Ave",1595
"110",110,"Albright, Alexandra W Esq","446 Woodward Ave #1","Reservoir","VI",3073,"446 Woodward Ave #1",3074
"111",111,"Gazette Record","1 Jenks Ave","Upper Kedron","QL",4055,"1 Jenks Ave",4065
"112",112,"Cochnower Pest Control","7 Valley Blvd","Buchan","VI",3885,"7 Valley Blvd",3985
"113",113,"Als Village Stationers","42741 Anania Dr","Beltana","SA",5730,"42741 Anania Dr",6730
"114",114,"A B C Pattern & Foundry Co","5 Shakespeare Ave","Kingswood","SA",5062,"5 Shakespeare Ave",5062
"115",115,"Gaddis Court Reporting","245 5th Ave","Nicholls Rivulet","TA",7112,"245 5th Ave",7112
"116",116,"Howard Johnson","2 Gateway Ctr","Upper Mount Gravatt","QL",4122,"2 Gateway Ctr",4122
"117",117,"Sunrise Cirby Animal Hospital","3175 Northwestern Hwy","Ridgley","TA",7321,"3175 NorthweStreetern Hwy",7321
"118",118,"Braid Electric Co","8 S Plaza Dr","Tubbut","VI",3888,"8 S Plaza Dr",3888
"119",119,"Lisko, Roy K Esq","8 Collins Ave","Collingullie","NS",2650,"8 Collins Ave",2650
"120",120,"House Of Ing","9526 Lincoln St","Munno Para","SA",5115,"9526 Lincoln St",5116
"121",121,"Hassanein, Nesa E Esq","406 E 4th St","Tyagarah","NS",2481,"406 E 4th St",2491
"122",122,"Frasier Karen L Kolligs","361 Via Colinas","Redgate","WA",6286,"361 Via Colinas",6386
"123",123,"Arc Of Montgomery County Inc","94 S Jefferson Rd","Modewarre","VI",3240,"94 S Jefferson Rd",4240
"124",124,"Redington, Thomas P Esq","8961 S Central Expy","Stirling Range National Park","WA",6338,"8961 S Central Expy",6338
"125",125,"Milwaukee Courier Inc","7 Wiley Post Way","Trowutta","TA",7330,"7 Wiley Post Way",7330
"126",126,"Mervis Steel Co","60 S 4th St","Rouse Hill","NS",2155,"60 S 4th St",2155
"127",127,"M Sorkin Sanford Associates","6 Lafayette St #3034","Wyandra","QL",4489,"6 Lafayette Street #3034",4489
"128",128,"Low Country Kitchen & Bath","35 Jefferson Ave","Goondi Hill","QL",4860,"35 Jefferson Avenue",4860
"129",129,"Spieker Properties","3492 88th St","Hill River","WA",6521,"3492 88th St",6521
"130",130,"Walker & Brehn Pa","20 Sw 28th Ter","Fairview Park","SA",5126,"20 Sw 28th Ter",5127
"131",131,"U Stor","6 Argyle Rd","Bar Beach","NS",2300,"6 Argyle Rd",2310
"132",132,"Moorhead, Michael D Esq","438 E Reynolds Rd #239","University Of Tasmania","TA",7005,"438 E Reynolds Rd #239",7105
"133",133,"R M Sloan Co Inc","47 Hall St","Regent West","VI",3072,"47 Hall St",4072
"134",134,"Star Limousine","17720 Beach Blvd","Oxley","QL",4075,"17720 Beach Blvd",4075
"135",135,"Pioneer Telephone Paging","8 2nd St","Don","TA",7310,"8 2nd St",7310
"136",136,"Communication Buildings Amer","490 Court St","Nyora","VI",3987,"490 Court St",3987
"137",137,"Components & Equipment Co","1456 Hill Rd","Croydon","QL",4871,"1456 Hill Rd",4871
"138",138,"Grand Rapids Right To Life","6 7th St","Scottsdale","TA",7260,"6 7th St",7260
"139",139,"Martin Nighswander & Mitchell","29 Nottingham Way #926","Montrose","VI",3765,"29 Nottingham Way #926",3765
"140",140,"Barter Systems Inc","8818 Century Park E #33","Oak Park","VI",3046,"8818 Century Park E #33",3047
"141",141,"W R Grace & Co","4 Commerce Center Dr","Nailsworth","SA",5083,"4 Commerce Center Dr",5093
"142",142,"Davis, J Mark Esq","979 S La Cienega Blvd #627","Tarong","QL",4615,"979 S La Cienega Blvd #627",4715
"143",143,"Roswell Honda Partners","9181 E 26th St","Kensington Park","SA",5068,"9181 E 26th St",6068
"144",144,"Era Mclachlan John Morgan Real","8855 North Ave","Ashmore","QL",4214,"8855 North Ave",4214
"145",145,"Vaughan, James J Esq","4 Spinning Wheel Ln","Granya","VI",3701,"4 Spinning Wheel Ln",3701
"146",146,"Wzyx 1440 Am","5905 S 32nd St","Alexandra","VI",3714,"5905 S 32nd St",3714
"147",147,"Amercn Spdy Printg Ctrs Ocala","514 Glenn Way","Wirrulla","SA",5661,"514 Glenn Way",5661
"148",148,"A & D Pallet Co","708 S Wilson Way","Weymouth","TA",7252,"708 S Wilson Way",7252
"149",149,"Nationwide Insurance","16949 Harristown Rd","Summer Hill","NS",2287,"16949 Harristown Rd",2287
"150",150,"Gallagher, Owen Esq","9 13th Ave S","Shailer Park","QL",4128,"9 13th Ave S",4129
"151",151,"Thomas Somerville Co","1 Rock Island Rd #8","Bell","NS",2786,"1 Rock Island Rd #8",2796
"152",152,"Unr Rohn","1554 Bracken Crk","Licola","VI",3858,"1554 Bracken Crk",3958
"153",153,"Cath Lea For Relig & Cvl Rgts","7 10th St W","Walyormouring","WA",6460,"7 10th St W",7460
"154",154,"Eagles Nest","9 Cron Hill Dr","Boronia","VI",3155,"9 Cron Hill Dr",3155
"155",155,"Epsilon Products Company","82 Tremont St #4","Baddaginnie","VI",3670,"82 Tremont St #4",3670
"156",156,"Anderson, Julie A Esq","30024 Whipple Ave Nw","Berrilee","NS",2159,"30024 Whipple Ave Nw",2159
"157",157,"Oakey & Oakey Abstrct Burnett","900 W Wood St","Barmaryee","QL",4703,"900 W Wood Street",4703
"158",158,"Pacific Scientific Co","847 Norristown Rd","Longford","TA",7301,"847 Norristown Rd",7301
"159",159,"Krausert, Diane D Esq","667 S Highland Dr #4","Simson","VI",3465,"667 S Highland Dr #4",3465
"160",160,"Blaney Sheet Metal","21 W 2nd St","Killabakh","NS",2429,"21 W 2nd St",2430
"161",161,"Goodknight, David R","2 W Henrietta Rd #6","Paluma","QL",4816,"2 W Henrietta Rd #6",4826
"162",162,"Sullivan & Associates Ltd","82655 Shawnee Mission Pky #5798","Barnawartha","VI",3688,"82655 Shawnee Mission Pky #5798",3788
"163",163,"American Board Of Surgery","9 Taylor Ave","Holwell","TA",7275,"9 Taylor Avenue",8275
"164",164,"Vernon Manor Hotel","62 J St #450","Combienbar","VI",3889,"62 J St #450",3889
"165",165,"Keith Altizer & Company Pa","2 Pennington St","Port Adelaide","SA",5015,"2 Pennington St",5015
"166",166,"H P Stran & Co","5496 Ne Columbia Blvd","Klemzig","SA",5087,"5496 Ne Columbia Blvd",5087
"167",167,"Southern National Bank S Car","4244 Lucas Creek Rd","Emu Park","QL",4710,"4244 Lucas Creek Rd",4710
"168",168,"American Western Mortgage","79819 Palmetto Ave","Travancore","VI",3032,"79819 Palmetto Avenue",3032
"169",169,"Oxner Vallerie","7 N Glenn Rd","Whetstone","QL",4387,"7 N Glenn Rd",4387
"170",170,"Rochelle Cold Storage","61 Center St #8","Corella","QL",4570,"61 Center St #8",4571
"171",171,"Mail Boxes Etc","562 Nw Cornell Rd","Humpty Doo","NT",836,"562 Nw Cornell Rd",846
"172",172,"Xandex Inc","48 General George Patton Dr #8611","Goode Beach","WA",6330,"48 General George Patton Dr #8611",6430
"173",173,"Hander, Deborah G Esq","9 W Passaic St","Heidelberg Rgh","VI",3081,"9 W Passaic St",4081
"174",174,"Vinco Furniture Inc","968 Delaware Ave","Waterloo","NS",2017,"968 Delaware Ave",2017
"175",175,"Stamp House","548 Charmonie Ln","Minyip","VI",3392,"548 Charmonie Ln",3392
"176",176,"Burton & Davis","91114 Grand Ave","Hunchy","QL",4555,"91114 Grand Ave",4555
"177",177,"Maier, Kristine M","44 Bush St","Grosvenor Place","NS",1220,"44 Bush Street",1220
"178",178,"J M Edmunds Co Inc","6 Mahler Rd","Pacific Paradise","QL",4564,"6 Mahler Rd",4564
"179",179,"Art Concepts","1 E Main St","Hungerford","QL",4493,"1 E Main St",4493
"180",180,"Richards, Don R Esq","58 State St #998","Boya","WA",6056,"58 State St #998",6057
"181",181,"B & B Environmental Inc","11408 Green St","Elizabeth West","SA",5113,"11408 Green St",5123
"182",182,"Printing Delite","297 8th Ave S #9","Gumly Gumly","NS",2652,"297 8th Ave S #9",2752
"183",183,"Weil Mclain Co","1 Wyckoff Ave","Wilmington","SA",5485,"1 Wyckoff Avenue",6485
"184",184,"Jones, Andrew D Esq","8 E North Ave","Pagewood","NS",2035,"8 E North Ave",2035
"185",185,"South Adams Savings Bank","13386 Tamarco Dr #20","Tawonga","VI",3697,"13386 Tamarco Dr #20",3697
"186",186,"Universal Granite & Marble Inc","70 W Market St #20","Hamlyn Heights","VI",3215,"70 W Market St #20",3215
"187",187,"Imagelink","53247 Montgomery St #36","Southtown","QL",4350,"53247 Montgomery Street #36",4350
"188",188,"Wrrr Fm","9495 Central Hwy #66","East Bowes","WA",6535,"9495 Central Hwy #66",6535
"189",189,"Lord Aeck & Sargent Architects","2 Route 9","Blue Haven","NS",2262,"2 Route 9",2262
"190",190,"Dalbec Agency Inc","75700 Academy Rd","Cramphorne","WA",6420,"75700 Academy Rd",6421
"191",191,"Reese Press Inc","6 Monte Ave","Beelbi Creek","QL",4659,"6 Monte Ave",4669
"192",192,"Stokes, Fred J Esq","5 France Ave S","Tanbar","QL",4481,"5 France Ave S",4581
"193",193,"Slachter, David Esq","803 Tupper Ln","Ringwood","VI",3134,"803 Tupper Ln",4134
"194",194,"Girling Health Care Inc","43 Nolan St","Battery Point","TA",7004,"43 Nolan St",7004
"195",195,"Welders Supply Service Inc","6 W 39th St","Milton","NS",2538,"6 W 39th St",2538
"196",196,"Engelbrecht, William H Esq","910 21st St","Laura","QL",4871,"910 21st St",4871
"197",197,"Nancy Brandon Realtor","2677 S Jackson St","Kidman Park","SA",5025,"2677 S Jackson Street",5025
"198",198,"Flanagan Lieberman Hoffman","6 Central Ave #4","Woodville","SA",5011,"6 Central Avenue #4",5011
"199",199,"Walter W Lawrence Ink","564 Almeria Ave #7474","Pedler Creek","SA",5171,"564 Almeria Ave #7474",5171
"200",200,"Ship It Packaging Inc","4 Grand St","Muckleford South","VI",3462,"4 Grand St",3463
"201",201,"Malsbary Mfg Co","9 Hamilton Blvd #299","Sydney South","NS",1235,"9 Hamilton Blvd #299",1245
"202",202,"Independence Marine Corp","50638 Northwest Blvd","Bandy Creek","WA",6450,"50638 NorthweStreet Blvd",6550
"203",203,"Anthonys","51 Bridge Ave","Carwarp","VI",3494,"51 Bridge Avenue",4494
"204",204,"L M H Inc","457 St Sebastian Way #189","Eltham","VI",3095,"457 St Sebastian Way #189",3095
"205",205,"Milgo Industrial Inc","6 Ackerman Rd","Doncaster East","VI",3109,"6 Ackerman Rd",3109
"206",206,"Rogers, Clay M Esq","8 W Lake St #1","Welbungin","WA",6477,"8 W Lake St #1",6477
"207",207,"Usa Asbestos Co","8454 6  17 M At Bradleys","Shenton Park","WA",6008,"8454 6  17 M At Bradleys",6008
"208",208,"Voils, Otis V","5 Ellestad Dr","Girraween","NS",2145,"5 Ellestad Dr",2145
"209",209,"Oaz Communications","9 N Nevada Ave","Woronora","NS",2232,"9 N Nevada Ave",2232
"210",210,"Elan Techlgy A Divsn Mansol","790 E Wisconsin Ave","Woodbury","TA",7120,"790 E Wisconsin Ave",7121
"211",211,"Norfolk County Newton Lung","60481 N Clark St","Lee Point","NT",810,"60481 N Clark St",820
"212",212,"Parker Bush & Lane Pc","43 E Main St","Baranduda","VI",3691,"43 E Main Street",3791
"213",213,"Stylecraft Corporation","5 Madison St #4651","Police Point","TA",7116,"5 Madison St #4651",8116
"214",214,"Bennett, Matthew T Esq","85 Nw Frontage Rd","Williamstown","WA",6430,"85 Nw Frontage Rd",6430
"215",215,"Highland Meadows Golf Club","584 Meridian St #997","Civic Square","AC",2608,"584 Meridian St #997",2608
"216",216,"Nelson, Michael J Esq","28220 Park Avenue W","Taragoola","QL",4680,"28220 Park Avenue W",4680
"217",217,"Henry, Robert J Esq","5 Austin Ave","Charleston","SA",5244,"5 AuStreetin Ave",5244
"218",218,"Mackraft Signs","481 925n N #959","Kealy","WA",6280,"481 925n N #959",6280
"219",219,"Orco State Empl Fed Crdt Un","9 9th St #4","Lillimur","VI",3420,"9 9th St #4",3420
"220",220,"Johnsen, Robert U Esq","56232 Hohman Ave","Officer","VI",3809,"56232 Hohman Ave",3810
"221",221,"Abe Goldstein Ofc Furn","3 Wall St #26","Lilli Pilli","NS",2229,"3 Wall St #26",2239
"222",222,"Roland Ashcroft","63154 Artesia Blvd","Blue Rocks","TA",7255,"63154 Artesia Blvd",7355
"223",223,"Village Meadows","32 E Poythress St","Westminster","WA",6061,"32 E Poythress St",7061
"224",224,"Busada Manufacturing Corp","86274 Howell Mill Rd Nw","Karama","NT",812,"86274 Howell Mill Rd Nw",812
"225",225,"Air Flow Co Inc","25488 Brickell Ave","Ocean Shores","NS",2483,"25488 Brickell Ave",2483
"226",226,"Freitag Pc","270 5th Ave","Eastwood","SA",5063,"270 5th Ave",5063
"227",227,"Saw Repair & Supply Co","891 Union Pacific Ave #8463","Gloucester","NS",2422,"891 Union Pacific Ave #8463",2422
"228",228,"Middendorf Meat Quality Foods","4562 Aurora Ave N","Heidelberg Rgh","VI",3081,"4562 Aurora Avenue N",3081
"229",229,"Eagle Plywood & Door Mfrs Inc","4864 N 168th Ave","The Risk","NS",2474,"4864 N 168th Ave",2474
"230",230,"Leigh, Lewis R Esq","7 Elm Ave","Yanco","NS",2703,"7 Elm Ave",2704
"231",231,"Bare Bones","6508 Adams St #32","Port Fairy","VI",3284,"6508 Adams St #32",3294
"232",232,"Avila, Edward G Esq","6434 Westchester Ave #28","Queenton","QL",4820,"6434 WeStreetcheStreeter Ave #28",4920
"233",233,"Oregon Handling Equip Co","70680 S Rider Trl","Watercarrin","WA",6407,"70680 S Rider Trl",7407
"234",234,"Reynolds, Stephen R Esq","700 Factory Ave #5649","Yeppoon","QL",4703,"700 Factory Ave #5649",4703
"235",235,"Credit Union Of The Rockies","3 Cherokee St","Bobalong","WA",6320,"3 Cherokee St",6320
"236",236,"Sullivan, John M Esq","76542 W Bijou St","Wurdiboluc","VI",3241,"76542 W Bijou St",3241
"237",237,"Henry D Lederman","44009 W 63rd #269","North Dandalup","WA",6207,"44009 W 63rd #269",6207
"238",238,"Burress, S Paige Esq","462 Morris Ave","Seddon","VI",3011,"462 Morris Avenue",3011
"239",239,"Dynetics","1 El Camino Real #603","Hindmarsh","WA",6462,"1 El Camino Real #603",6462
"240",240,"West Pac Environmental Inc","92417 Arbuckle Ct","Julia Creek","QL",4823,"92417 Arbuckle Ct",4824
"241",241,"Progressive Machine Co","1 Westpark Dr","Salter Point","WA",6152,"1 Westpark Dr",6162
"242",242,"Berhanu International Foods","5 Montana Ave","Lilydale","QL",4344,"5 Montana Ave",4444
"243",243,"Mcmillan, Regina E Esq","6629 Main St","Tea Gardens","NS",2324,"6629 Main St",3324
"244",244,"Central Nebraska Home Care","4 W 18th St","Oxley","VI",3678,"4 W 18th St",3678
"245",245,"Unicircuit Inc","95412 16th St #6","Yallah","NS",2530,"95412 16th St #6",2530
"246",246,"F H Overseas Export Inc","17 Kamehameha Hwy","Cavendish","VI",3314,"17 Kamehameha Hwy",3314
"247",247,"Musgrave, R Todd Esq","8650 S Valley View Bld #6941","Condobolin","NS",2877,"8650 S Valley View Bld #6941",2877
"248",248,"Santek Inc","16 Talmadge Rd","West Tamworth","NS",2340,"16 Talmadge Rd",2340
"249",249,"Springer Industrial Equip Inc","750 Lancaster Ave","Campsie","NS",2194,"750 Lancaster Ave",2194
"250",250,"Long, Robert B Jr","8808 Northern Blvd","Merrylands","NS",2160,"8808 Northern Blvd",2161
"251",251,"Prusax, Maximilian M Esq","76596 Pleasant Hill Rd","Townsville Milpo","QL",4813,"76596 Pleasant Hill Rd",4823
"252",252,"Custom Jig Grinding","94 Delta Fair Blvd #2702","Runnymede","QL",4615,"94 Delta Fair Blvd #2702",4715
"253",253,"Senior Village Nursing Home","25 Sw End Blvd #609","Coominya","QL",4311,"25 Sw End Blvd #609",5311
"254",254,"Mchale, Joseph G Esq","15258 W Charleston Blvd","Aroona","QL",4551,"15258 W Charleston Blvd",4551
"255",255,"Pestmaster Services Inc","75 Ryan Dr #70","Duramana","NS",2795,"75 Ryan Dr #70",2795
"256",256,"Moorhead Associates Inc","9634 South St","Saltwater River","TA",7186,"9634 South St",7186
"257",257,"Alb Inc","40490 Morrow St","Bluff","QL",4702,"40490 Morrow Street",4702
"258",258,"Atrium Marketing Inc","9 Commerce Cir","Kingaroy","QL",4610,"9 Commerce Cir",4610
"259",259,"Machine Design Service Inc","190 34th St #8","Nangetty","WA",6522,"190 34th St #8",6522
"260",260,"Mcwhirter Realty Corp","1036 Malone Rd","Uarbry","NS",2329,"1036 Malone Rd",2330
"261",261,"National Mortgage Co","398 Fort Campbell Blvd #923","Cudgera Creek","NS",2484,"398 Fort Campbell Blvd #923",2494
"262",262,"Alvis, John W Esq","2799 Cajon Blvd","East Nanango","QL",4615,"2799 Cajon Blvd",4715
"263",263,"Community Health Law Project","302 N 10th St #3896","Oakleigh South","VI",3167,"302 N 10th St #3896",4167
"264",264,"Highway Rentals Inc","79346 Firestone Blvd","Gununa","QL",4871,"79346 Firestone Blvd",4871
"265",265,"Rapid Reproductions Printing","37564 Grace Ln","Salamander Bay","NS",2317,"37564 Grace Ln",2317
"266",266,"Autocrat Inc","470 W Irving Park Rd","Bundaberg North","QL",4670,"470 W Irving Park Rd",4670
"267",267,"Venino And Venino","6 Jefferson St","Middleton","SA",5213,"6 Jefferson Street",5213
"268",268,"Corporex Companies Inc","1758 Park Pl","Eaglemont","VI",3084,"1758 Park Pl",3084
"269",269,"Economy Stainless Supl Co Inc","7659 Market St","Premer","NS",2381,"7659 Market St",2381
"270",270,"Dgstv Diseases Cnslnts","95830 Webster Dr","Trott Park","SA",5158,"95830 Webster Dr",5159
"271",271,"Broaches Inc","26 Old William Penn Hwy","Boynewood","QL",4626,"26 Old William Penn Hwy",4636
"272",272,"Woods Manufactured Housing","343 E Main St","Maraylya","NS",2765,"343 E Main Street",2865
"273",273,"Theos Software Corp","8 Cabot Rd","Wayville","SA",5034,"8 Cabot Rd",6034
"274",274,"Stanco Metal Products Inc","8 Allied Dr","Burnside","WA",6285,"8 Allied Dr",6285
"275",275,"Xyvision Inc","26921 Vassar St","Daradgee","QL",4860,"26921 Vassar St",4860
"276",276,"Carrera Casting Corp","9 Old York Rd #418","Weetulta","SA",5573,"9 Old York Rd #418",5573
"277",277,"Asian Jewelry","12398 Duluth St","Auburn","NS",1835,"12398 Duluth Street",1835
"278",278,"Southwark Corporation","960 S Arroyo Pkwy","South Hobart","TA",7004,"960 S Arroyo Pkwy",7004
"279",279,"Kdhl Am Radio","53 Euclid Ave","Forbes","NS",2871,"53 Euclid Ave",2871
"280",280,"Kelly, Charles G Esq","700 Wilmson Rd","Forest Reefs","NS",2798,"700 Wilmson Rd",2799
"281",281,"Fennessey Buick Inc","466 Hillsdale Ave","Rocklands","VI",3401,"466 Hillsdale Ave",3411
"282",282,"Apex Bottle Co","86351 Pine Ave","Oaklands Park","SA",5046,"86351 Pine Ave",5146
"283",283,"Shamrock Food Service","6139 Contractors Dr #450","Buckland Park","SA",5120,"6139 Contractors Dr #450",6120
"284",284,"Plastic Supply Inc","83 Longhurst Rd","Longwood","SA",5153,"83 Longhurst Rd",5153
"285",285,"Gaylord","76 Daylight Way #7","Varsity Lakes","QL",4227,"76 Daylight Way #7",4227
"286",286,"Bank Of New York Na","3883 N Central Ave","Appin","NS",2560,"3883 N Central Ave",2560
"287",287,"Cole, Gary D Esq","75 E Main","Adelaide River","NT",846,"75 E Main",846
"288",288,"Gencheff, Nelson E Do","9 Memorial Pky Nw","Harris Park","NS",2150,"9 Memorial Pky Nw",2150
"289",289,"American General Finance","70086 Division St #3","Kallista","VI",3791,"70086 Division St #3",3791
"290",290,"Feutz, James F Esq","4 Middletown Blvd #33","Camena","TA",7316,"4 Middletown Blvd #33",7317
"291",291,"Kwik Kopy Printing & Copying","20907 65s S","Woodberry","NS",2322,"20907 65s S",2332
"292",292,"Borough Clerk","82136 Post Rd","Rocky Gully","WA",6397,"82136 PoStreet Rd",6497
"293",293,"U S Rentals","3 W Pioneer Dr","Preston Beach","WA",6215,"3 W Pioneer Dr",7215
"294",294,"Katz Brothers Market Inc","5610 Holliday Rd","Brigalow","QL",4412,"5610 Holliday Rd",4412
"295",295,"Grossman Tuchman & Shah","29133 Hammond Dr #1","Beermullah","WA",6503,"29133 Hammond Dr #1",6503
"296",296,"American Inst Muscl Studies","51 Greenwood Ave","Ridgewood","WA",6030,"51 Greenwood Ave",6030
"297",297,"Joyces Submarine Sandwiches","327 Ward Pky","Bayles","VI",3981,"327 Ward Pky",3981
"298",298,"Domurad, John M Esq","52680 W Hwy 55 #59","Moorabbin Airport","VI",3194,"52680 W Hwy 55 #59",3194
"299",299,"Debbies Golden Touch","654 Se 29th St","Waratah West","NS",2298,"654 Se 29th St",2298
"300",300,"Johnston, George M Esq","65 Clayton Rd","Cullulleraine","VI",3496,"65 Clayton Rd",3497
"301",301,"Chateau Sonesta Hotel","136 2nd Ave N","Cairns City","QL",4870,"136 2nd Ave N",4880
"302",302,"Superior Trading Co","3 N Michigan Ave","Warding East","WA",6405,"3 N Michigan Ave",6505
"303",303,"Breathitt Fnrl Home & Mnmt Co","1607 Laurel St","North Haven","NS",2443,"1607 Laurel St",3443
"304",304,"Viking Lodge","77818 Prince Drew Rd","Cape Paterson","VI",3995,"77818 Prince Drew Rd",3995
"305",305,"Brown Bear Bait Company","1 Vogel Rd","Cabramatta","NS",2166,"1 Vogel Rd",2166
"306",306,"Pakzad Advertising","5 Main St","Kongorong","SA",5291,"5 Main St",5291
"307",307,"Jean Barbara Ltd","7696 Carey Ave","Digby","VI",3309,"7696 Carey Ave",3309
"308",308,"Thurmon, Steven P","76 San Pablo Ave","Sedan","SA",5353,"76 San Pablo Avenue",5353
"309",309,"Bussard, Vicki L Esq","767 9th Ave Sw","Braybrook","VI",3019,"767 9th Ave Sw",3019
"310",310,"Stamell Tabacco & Schager","82 Hopkins Plz","Inkpen","WA",6302,"82 Hopkins Plz",6303
"311",311,"Aztech Controls Inc","64 Prairie Ave","Gillieston Heights","NS",2321,"64 Prairie Ave",2331
"312",312,"Hutchinson Inc","5 Jackson St","Neerabup","WA",6031,"5 Jackson Street",6131
"313",313,"Curtis & Curtis Inc","705 Stanwix St","Mount Martha","VI",3934,"705 Stanwix St",4934
"314",314,"Roane, Matthew H Esq","3318 Buckelew Ave","Appila","SA",5480,"3318 Buckelew Ave",5480
"315",315,"Best Western Gloucester Inn","38494 Port Reading Ave","Milton","QL",4064,"38494 Port Reading Ave",4064
"316",316,"Shine","81 Us Highway 9","Etty Bay","QL",4858,"81 Us Highway 9",4858
"317",317,"Schwartz, Seymour I Md","45 Mountain View Ave","Lower Hermitage","SA",5131,"45 Mountain View Ave",5131
"318",318,"American Express Publshng Corp","6 W Meadow St","Degilbo","QL",4621,"6 W Meadow St",4621
"319",319,"Saratoga Land Office","2 Old Corlies Ave","Eastern Heights","QL",4305,"2 Old Corlies Ave",4305
"320",320,"Jaywork, John Terence Esq","5614 Public Sq","Normanville","SA",5204,"5614 Public Sq",5205
"321",321,"Northbros Co Divsn Natl Svc","6 E Gloria Switch Rd #96","Yorkrakine","WA",6409,"6 E Gloria Switch Rd #96",6419
"322",322,"Psychotherapy Associates","1 Us Highway 206","Kialla East","VI",3631,"1 Us Highway 206",3731
"323",323,"K J N Advertising Inc","5289 Ramblewood Dr","Glen Boughton","QL",4871,"5289 Ramblewood Dr",5871
"324",324,"Automatic Feed Co","5 Aquarium Pl #1","Ongerup","WA",6336,"5 Aquarium Pl #1",6336
"325",325,"Newton Clerk","466 Lincoln Blvd","Clunes","VI",3370,"466 Lincoln Blvd",3370
"326",326,"Pleasantville Finance Dept","42 United Dr","Pierces Creek","QL",4355,"42 United Dr",4355
"327",327,"Body Part Connection","5920 E Arapahoe Rd","Andergrove","QL",4740,"5920 E Arapahoe Rd",4740
"328",328,"Cooper And Raley","2 New Brooklyn Rd","Concord West","NS",2138,"2 New Brooklyn Rd",2138
"329",329,"H T Communications Group Ltd","9 34th Ave #69","Bethania","QL",4205,"9 34th Ave #69",4205
"330",330,"Debbie Reynolds Hotel","32716 N Michigan Ave #82","Barooga","NS",3644,"32716 N Michigan Ave #82",3645
"331",331,"Crew, Robert B Esq","78 Sw Beaverton Hillsdale H","Willetton","WA",6155,"78 Sw Beaverton Hillsdale H",6165
"332",332,"Reef Encrustaceans","8494 E 57th St","Stratton","WA",6056,"8494 E 57th Street",6156
"333",333,"Reporters Inc","46 Broadway St","Elimbah","QL",4516,"46 Broadway St",5516
"334",334,"Arizona Equipment Trnsprt Inc","228 S Tyler St","Emerald","VI",3782,"228 S Tyler St",3782
"335",335,"Hub Manufacturing Company Inc","2714 Beach Blvd","Changerup","WA",6394,"2714 Beach Blvd",6394
"336",336,"Dippin Flavors","3266 Welsh Rd","Varsity Lakes","QL",4227,"3266 Welsh Rd",4227
"337",337,"Harfred Oil Co","1 S Maryland Pky","Durham Downs","QL",4454,"1 S Maryland Pky",4454
"338",338,"Wilheim, Kari A Esq","6 De Belier Rue","Bouvard","WA",6210,"6 De Belier Rue",6210
"339",339,"Gilardis Frozen Food","57869 Alemany Blvd","Bentley Dc","WA",6983,"57869 Alemany Blvd",6983
"340",340,"Ronald Massingill Pc","39 Plummer St","Thornton","NS",2322,"39 Plummer St",2323
"341",341,"Colosi, Darryl J Esq","78717 Graves Ln","Eagle Farm","QL",4009,"78717 Graves Ln",4019
"342",342,"Tripuraneni, Prabhakar Md","30338 S Dunworth St","Peake","SA",5301,"30338 S Dunworth Street",5401
"343",343,"Carlyle Abstract Co","6 Walnut St","Chippendale","NS",2008,"6 Walnut St",3008
"344",344,"Streator Onized Fed Crdt Un","2244 Franquette Ave","Gorokan","NS",2263,"2244 Franquette Ave",2263
"345",345,"Valley Hi Bank","9892 Hernando W","Grevillia","NS",2474,"9892 Hernando W",2474
"346",346,"Pep Boys Manny Moe & Jack","9296 Prince Rodgers Ave","Chatsworth","NS",2469,"9296 Prince Rodgers Ave",2469
"347",347,"Knights Inn","9 Chandler Ave #355","Bawley Point","NS",2539,"9 Chandler Ave #355",2539
"348",348,"Telcom Communication Center","173 Howard Ave","Weengallon","QL",4497,"173 Howard Avenue",4497
"349",349,"Bell Electric Co","3216 W Wabansia Ave","Tuggeranong Dc","AC",2901,"3216 W Wabansia Ave",2901
"350",350,"Signs Now","947 W Harrison St #640","Dangar Island","NS",2083,"947 W Harrison St #640",2084
"351",351,"Chieftain Four Inc","94843 Trabold Rd #59","Shannon","TA",7030,"94843 Trabold Rd #59",7040
"352",352,"South Carolina State Housing F","8 Lincoln Way W #6698","Greenhills","WA",6302,"8 Lincoln Way W #6698",6402
"353",353,"Lucas Cntrl Systems Prod Deeco","262 Montauk Blvd","Cherrybrook","NS",2126,"262 Montauk Blvd",3126
"354",354,"J C S Iron Works Inc","5040 Teague Rd #65","Junee","NS",2663,"5040 Teague Rd #65",2663
"355",355,"Lsr Pokorny Schwartz Friedman","54648 Hylan Blvd #883","Tibradden","WA",6532,"54648 Hylan Blvd #883",6532
"356",356,"Branom Instrument Co","7463 Elmwood Park Blvd","Tungkillo","SA",5236,"7463 Elmwood Park Blvd",5236
"357",357,"Young, Craig C Md","630 E Plano Pky","Tarawera","QL",4494,"630 E Plano Pky",4494
"358",358,"Midwest Marketing Inc","166 N Maple Dr","Scotts Head","NS",2447,"166 N Maple Dr",2447
"359",359,"Korolishin, Michael Esq","20 Meadow Ln","Pakenham Upper","VI",3810,"20 Meadow Ln",3810
"360",360,"Perrysburg Animal Care Inc","73 Robert S","Westerway","TA",7140,"73 Robert S",7141
"361",361,"Hospitality Design Group","512 E Idaho St","Burrier","NS",2540,"512 E Idaho St",2550
"362",362,"Ciba Geigy Corp","98021 Harwin Dr","East Nabawa","WA",6532,"98021 Harwin Dr",6632
"363",363,"Robinson, Michael C Esq","892 Sw Broadway #8","Millers Point","NS",2000,"892 Sw Broadway #8",3000
"364",364,"De Woskin, Alan E Esq","192 N Sheffield Ave","Bunya Mountains","QL",4405,"192 N Sheffield Ave",4405
"365",365,"Alumi Span Inc","5 Columbia Pike","Mayfield East","NS",2304,"5 Columbia Pike",2304
"366",366,"M C Publishing","35983 Daubert St","Verges Creek","NS",2440,"35983 Daubert St",2440
"367",367,"Phoenix Marketing Rep Inc","678 S Main St","Hill River","WA",6521,"678 S Main Street",6521
"368",368,"Remc South Eastern","532 Saint Marks Ct","Marshdale","NS",2420,"532 Saint Marks Ct",2420
"369",369,"Curran, Carol N Esq","1337 N 26th St","Bundall","QL",4217,"1337 N 26th St",4217
"370",370,"Faber Castell Corporation","556 Bernardo Cent","Mount Nasura","WA",6112,"556 Bernardo Cent",6113
"371",371,"Palmetto Food Equipment Co Inc","9561 Chartres St","Parndana","SA",5220,"9561 Chartres St",5230
"372",372,"Greater Ky Corp","11999 Main St","Dripstone","NS",2820,"11999 Main Street",2920
"373",373,"Kajo 1270 Am Radio","495 Distribution Dr #996","Gnotuk","VI",3260,"495 Distribution Dr #996",4260
"374",374,"Fried, Monte Esq","49 Walnut St","Yarralumla","AC",2600,"49 Walnut St",2600
"375",375,"Dayer Real Estate Group","85 S Washington Ave","Muja","WA",6225,"85 S Washington Ave",6225
"376",376,"On Your Feet","72984 W 1st St","Summerhill","TA",7250,"72984 W 1st St",7250
"377",377,"South Side Machine Works Inc","3 Ridge Rd W #949","Port Flinders","SA",5495,"3 Ridge Rd W #949",5495
"378",378,"Milner Inn","2 Landmeier Rd","Wombeyan Caves","NS",2580,"2 Landmeier Rd",2580
"379",379,"United Mortgage","82 W Market St","Dartnall","WA",6320,"82 W Market St",6320
"380",380,"Cahill, Steven J Esq","89 N Himes Ave","Dural","NS",2330,"89 N Himes Ave",2331
"381",381,"G Whitfield Richards Co","62296 S Elliott Rd #2","Wandering","WA",6308,"62296 S Elliott Rd #2",6318
"382",382,"Cuzzo, Michael J Esq","8 S Main St","Manjimup","WA",6258,"8 S Main Street",6358
"383",383,"Swanson Travel","50808 A Pamalee Dr","Grange","QL",4051,"50808 A Pamalee Dr",5051
"384",384,"Jackson, Brian C","30691 Poplar Ave #4","Indented Head","VI",3223,"30691 Poplar Ave #4",3223
"385",385,"Fables Gallery","80968 Armitage Ave","Marla","SA",5724,"80968 Armitage Ave",5724
"386",386,"Forsyth Steel Co","5 Pittsburg St","Mungabunda","QL",4718,"5 Pittsburg St",4718
"387",387,"Lally, Lawrence D Esq","812 Berry Blvd #96","Houston","VI",3128,"812 Berry Blvd #96",3128
"388",388,"Sassy Lassie Dolls","73 12th St","Larrakeyah","NT",820,"73 12th St",820
"389",389,"Performance Consulting Grp Inc","27730 American Ave","Docklands","VI",3008,"27730 American Ave",3008
"390",390,"Padrick, Comer W Jr","72 Park Ave","Gabbadah","WA",6041,"72 Park Ave",6042
"391",391,"Analytical Laboratories","59215 W 80th St","Morundah","NS",2700,"59215 W 80th St",2710
"392",392,"Signs Of The Times","186 Geary Blvd #923","Trungley Hall","NS",2666,"186 Geary Blvd #923",2766
"393",393,"Brown, Alan Esq","717 Midway Pl","Tawonga","VI",3697,"717 Midway Pl",4697
"394",394,"Biancas La Petite French Bkry","68 Camden Rd","Kingswood","NS",2550,"68 Camden Rd",2550
"395",395,"Williams Design Group","175 N Central Ave","Greenslopes","QL",4120,"175 N Central Ave",4120
"396",396,"Community Communication Servs","80896 South Ave","Grovedale","VI",3216,"80896 South Ave",3216
"397",397,"Hampton Inn Hotel","6584 S Bascom Ave #371","Elanora","QL",4221,"6584 S Bascom Ave #371",4221
"398",398,"Hoffman, Carl Esq","64865 Main St","North Fremantle","WA",6159,"64865 Main St",6159
"399",399,"Sonoco Products Co","62171 E 6th Ave","Fyshwick","AC",2609,"62171 E 6th Ave",2609
"400",400,"Brattleboro Printing Inc","67729 180th St","Allworth","NS",2425,"67729 180th St",2426
"401",401,"Scientific Agrcltl Svc Inc","7721 Harrison St","Kingsway West","NS",2208,"7721 Harrison St",2218
"402",402,"Booster Farms","5351 E Thousand Oaks Blvd","Woodford","NS",2463,"5351 E Thousand Oaks Blvd",2563
"403",403,"Accent Copy Center Inc","5 Carpenter Ave","Breakaway","QL",4825,"5 Carpenter Avenue",5825
"404",404,"Mccaffreys Supermarket","374 Sunrise Ave","Gorrie","WA",6556,"374 Sunrise Ave",6556
"405",405,"Chemex Labs Ltd","68538 N Bentz St #1451","Koorlong","VI",3501,"68538 N Bentz St #1451",3501
"406",406,"Galaxie Displays Inc","23 S Orange Ave #55","Wardell","NS",2477,"23 S Orange Ave #55",2477
"407",407,"Harris, Eric C Esq","4373 Washington St","Bongeen","QL",4356,"4373 Washington Street",4356
"408",408,"Tarix Printing","61550 S Figueroa St","Waverley","NS",2024,"61550 S Figueroa St",2024
"409",409,"Chem Aqua","8 N Town East Blvd","Forrest","VI",3236,"8 N Town East Blvd",3236
"410",410,"Kern Valley Printing","2452 Bango Rd","Gundaroo","NS",2620,"2452 Bango Rd",2621
"411",411,"American Speedy Printing Ctrs","8219 Roswell Rd Ne","North Boyanup","WA",6237,"8219 Roswell Rd Ne",6247
"412",412,"Doane Products Company","3 Davis Blvd","Mouroubra","WA",6472,"3 Davis Blvd",6572
"413",413,"Jerico Group","1 S Marginal Rd","Flinders University","SA",5042,"1 S Marginal Rd",6042
"414",414,"Mortenson Broadcasting Co","78 S Robson","Crows Nest","QL",4355,"78 S Robson",4355
"415",415,"M & M Quality Printing","2749 Van Nuys Blvd","Panmure","VI",3265,"2749 Van Nuys Blvd",3265
"416",416,"Georgia Business Machines","722 E Liberty St","Bygalorie","NS",2669,"722 E Liberty St",2669
"417",417,"Leo, Frank M","9 Gunnison St","Oakhurst","NS",2761,"9 Gunnison Street",2761
"418",418,"S E M A","2902 Edison Dr #278","Mandurah East","WA",6210,"2902 Edison Dr #278",6210
"419",419,"Arthur Andersen & Co","72 N Buckeye Ave","Daisy Hill","VI",3465,"72 N Buckeye Ave",3465
"420",420,"Triangle Engineering Inc","41 E Jackson St","Willetton","WA",6155,"41 E Jackson St",6156
"421",421,"Schmidt, Charles E Jr","684 William St","Tarnagulla","VI",3551,"684 William St",3561
"422",422,"Emess Professional Svces","185 W Guadalupe Rd","Steels Creek","VI",3775,"185 W Guadalupe Rd",3875
"423",423,"White, Mark A Cpa","18514 E 4th St #8","Broken Head","NS",2481,"18514 E 4th St #8",3481
"424",424,"Vicon Corporation","28 Standiford Ave #6","Bundaberg West","QL",4670,"28 Standiford Ave #6",4670
"425",425,"Turl Engineering Works","33108 S Yosemite Ct","Port Melbourne","VI",3207,"33108 S Yosemite Ct",3207
"426",426,"Deep Creek Pharmacy","73778 Battery St","Happy Valley","SA",5159,"73778 Battery St",5159
"427",427,"Mister Bagel","351 Crooks Rd","Benambra","VI",3900,"351 Crooks Rd",3900
"428",428,"Howard Winig Realty Assocs Inc","8 Glenn Way #3","Brockman","WA",6701,"8 Glenn Way #3",6701
"429",429,"Jordan, Mark D Esq","8 W Virginia St","Amphitheatre","VI",3468,"8 W Virginia St",3468
"430",430,"Marin Sun Printing","65484 Bainbridge Rd","Penrith","NS",2750,"65484 Bainbridge Rd",2751
"431",431,"Verde, Louis J Esq","156 Morris St","Darke Peak","SA",5642,"156 Morris St",5652
"432",432,"Convum Internatl Corp","1881 Market St","Mole Creek","TA",7304,"1881 Market Street",7404
"433",433,"Thomas Torto Constr Corp","6 Kings St #4790","Emerald Beach","NS",2456,"6 Kings St #4790",3456
"434",434,"Astromatic","9787 Dunksferry Rd","Logan Village","QL",4207,"9787 Dunksferry Rd",4207
"435",435,"Kuhio Photo","13 Blanchard St #996","Coober Pedy","SA",5723,"13 Blanchard St #996",5723
"436",436,"Lehigh Furn Divsn Lehigh","2 Pompton Ave","Berowra Heights","NS",2082,"2 Pompton Ave",2082
"437",437,"Okon Inc","2867 Industrial Way","Innaloo","WA",6018,"2867 InduStreetrial Way",6018
"438",438,"Postlewaite, Jack A Esq","850 Warwick Blvd #58","Leeman","WA",6514,"850 Warwick Blvd #58",6514
"439",439,"Regent Consultants Corp","2 Ellis Rd","East Damboring","WA",6608,"2 Ellis Rd",6608
"440",440,"Hinkson Cooper Weaver Inc","80 Monroe St","Kinglake West","VI",3757,"80 Monroe St",3758
"441",441,"Spclty Fastening Systems Inc","71089 Queens Blvd","Canning Vale","WA",6155,"71089 Queens Blvd",6165
"442",442,"Rudolph, William S Cpa","66094 Pioneer Rd","Upper Glastonbury","QL",4570,"66094 Pioneer Rd",4670
"443",443,"Choo Choo Caboose At Jade Bbq","66 Congress St","Caroline Springs","VI",3023,"66 Congress St",4023
"444",444,"Anthony & Langford","44 105th Ave","Hunchy","QL",4555,"44 105th Ave",4555
"445",445,"Shapiro Bag Company","40809 Rockburn Hill Rd","Hamlyn Terrace","NS",2259,"40809 Rockburn Hill Rd",2259
"446",446,"Lescure Company Inc","9 Green Rd #5877","Darbys Falls","NS",2793,"9 Green Rd #5877",2793
"447",447,"Higgins, Daniel B Esq","63 W 41st Ave #93","Pinnacle","QL",4741,"63 W 41Street Ave #93",4741
"448",448,"Dot Pitch Electronics","2 Stirrup Dr #4907","Carlsruhe","VI",3442,"2 Stirrup Dr #4907",3442
"449",449,"Henri D Kahn Insurance","19 Court St","Paulls Valley","WA",6076,"19 Court St",6076
"450",450,"Test Tools Inc","3 Hwy 61 #2491","Mirani","QL",4754,"3 Hwy 61 #2491",4755
"451",451,"Rachmel & Company Cpa Pa","97539 Connecticut Ave Nw #3586","Buckland","TA",7190,"97539 Connecticut Ave Nw #3586",7200
"452",452,"Hermann Assocs Inc Safe Mart","59 Murray Hill Pky","Mitta Mitta","VI",3701,"59 Murray Hill Pky",3801
"453",453,"Palmer Publications Inc","15 W 11mile Rd","Boat Harbour Beach","TA",7321,"15 W 11mile Rd",8321
"454",454,"Southern Imperial Inc","709 New Market St","Botany","NS",1455,"709 New Market St",1455
"455",455,"United Water Resources Inc","324 Shawnee Mission Pky","Scaddan","WA",6447,"324 Shawnee Mission Pky",6447
"456",456,"Burke, Jonathan H Esq","37 Saint Louis Ave #292","Lenswood","SA",5240,"37 Saint Louis Ave #292",5240
"457",457,"Nurses Ofr Newborns","80289 Victory Ave #9","Farrell Flat","SA",5416,"80289 Victory Ave #9",5416
"458",458,"Para Laboratories","16 Governors Dr Sw","Melrose","SA",5483,"16 Governors Dr Sw",5483
"459",459,"New Orleans Credit Service Inc","4 E Aven #284","Freemans Waterhole","NS",2323,"4 E Aven #284",2323
"460",460,"Signs By Berry","262 8th St","Simpsons Bay","TA",7150,"262 8th St",7151
"461",461,"Saum, Scott J Esq","79 State Route 35","Ripponlea","VI",3185,"79 State Route 35",3195
"462",462,"Ulrich, Lawrence M Esq","75 Blackington Ave","North Cascade","WA",6445,"75 Blackington Ave",6545
"463",463,"Stewart Levine & Davis","6 Abbott Rd","Ensay","VI",3895,"6 Abbott Rd",4895
"464",464,"Bark Eater Inn","5159 Saint Ann St","Golden Point","VI",3451,"5159 Saint Ann St",3451
"465",465,"Reich, Richard J Esq","26 Ripley St #5444","Middle Cove","NS",2068,"26 Ripley St #5444",2068
"466",466,"Kappus Co","39828 Abbott Rd","Waterfront Place","QL",4001,"39828 Abbott Rd",4001
"467",467,"Terri, Teresa Hutchens Esq","2495 Beach Blvd #557","Buraminya","WA",6452,"2495 Beach Blvd #557",6452
"468",468,"Hong Iwai Hulbert & Kawano","3 Bustleton Ave","Balnagowan","QL",4740,"3 Bustleton Avenue",4740
"469",469,"Fraser Dante Ltd","7 N 4th St","Lower Cressbrook","QL",4313,"7 N 4th St",4313
"470",470,"Die Craft Stamping","1 National Plac #6619","Larrakeyah","NT",820,"1 National Plac #6619",821
"471",471,"Sako, Bradley T Esq","248 Academy Rd","Middleton","TA",7163,"248 Academy Rd",7173
"472",472,"Country Comfort","2 State Hwy","Oak Flats","NS",2529,"2 Streetate Hwy",2629
"473",473,"Amberley Suite Hotels","6 W Cornelia Ave","Orange Hill","QL",4455,"6 W Cornelia Avenue",5455
"474",474,"Warren Leadership","461 S Fannin Ave","Welshpool","WA",6106,"461 S Fannin Ave",6106
"475",475,"Alexander, David T Esq","51255 Tea Town Rd #9","Minnenooka","WA",6532,"51255 Tea Town Rd #9",6532
"476",476,"Fairfield Inn By Marriott","93 Bloomfield Ave #829","Wagga Wagga South","NS",2650,"93 Bloomfield Ave #829",2650
"477",477,"Skyline Lodge & Restaurant","5775 Mechanic St #517","Wansbrough","WA",6320,"5775 Mechanic Street #517",6320
"478",478,"Aviation Design","3 Industrial Blvd","Pintharuka","WA",6623,"3 Industrial Blvd",6623
"479",479,"Malmon, Alvin S Esq","8202 Cornwall Rd","Eumundi","QL",4562,"8202 Cornwall Rd",4562
"480",480,"Transit Cargo Services Inc","53597 W Clarendon Ave","Halton","NS",2311,"53597 W Clarendon Ave",2312
"481",481,"Comfort Inn Of Revere","577 Cleveland Ave","Glenmore Park","NS",2745,"577 Cleveland Ave",2755
"482",482,"Duncan & Associates","259 1st Ave","Mccutcheon","QL",4856,"259 1Street Ave",4956
"483",483,"Philip Kingsley Trichological","79 Mechanic St","Pimpimbudgee","QL",4615,"79 Mechanic St",5615
"484",484,"Burlington Homes Of Maine","269 Executive Dr","Ilford","NS",2850,"269 Executive Dr",2850
"485",485,"Carson, Scott W Esq","79 Runamuck Pl","Caparra","NS",2429,"79 Runamuck Pl",2429
"486",486,"Dewitt Cnty Fed Svngs & Ln","31 Guilford Rd #7904","Duaringa","QL",4712,"31 Guilford Rd #7904",4712
"487",487,"Art Material Services Inc","504 Steve Dr","Weston","NS",2326,"504 Streeteve Dr",2326
"488",488,"Consolidated Manufacturing Inc","407 E 57th Ave","Clunes","NS",2480,"407 E 57th Avenue",2480
"489",489,"Reliance Credit Union","72 W Ripley Ave","Oakey","QL",4401,"72 W Ripley Ave",4401
"490",490,"Sinclair Machine Products Inc","75 Elm Rd #1190","Barton","AC",2600,"75 Elm Rd #1190",2601
"491",491,"Kent, Wendy M Esq","32 Broadway St","Lanena","TA",7275,"32 Broadway St",7285
"492",492,"Dixon, Eric D Esq","41 Washington Blvd","Cora Lynn","VI",3814,"41 Washington Blvd",3914
"493",493,"Wood Sign & Banner Co","5 Buford Hwy Ne #3","Allora","QL",4362,"5 Buford Hwy Ne #3",5362
"494",494,"Adkins, Russell Esq","6 Flex Ave","Willow Tree","NS",2339,"6 Flex Ave",2339
"495",495,"Danform Shoe Stores","21058 Massillon Rd","Keilor Downs","VI",3038,"21058 Massillon Rd",3038
"496",496,"Antietam Cable Television","28465 Downey Ave #4238","Barringun","QL",4490,"28465 Downey Ave #4238",4490
"497",497,"Lombardi Bros Inc","2803 N Catalina Ave","Pilliga","NS",2388,"2803 N Catalina Ave",2388
"498",498,"Nathaniel Electronics","22 Livingston Ave","Rhodes","NS",2138,"22 Livingston Avenue",2138
"499",499,"Rodriguez, Joseph A Esq","403 Conn Valley Rd","Castletown","WA",6450,"403 Conn Valley Rd",6450
"500",500,"Stilling, William J Esq","5400 Market St","Turill","NS",2850,"5400 Market St",2851
