NBN_ID,company_name,address,city,state,post
1,"Brandt, Jonathan F Esq",171 E 24th St,Leith,TA,7315
2,Landrum Temporary Services,22222 Acoma St,Proston,QL,4613
3,"Inabinet, Macre Esq",534 Schoenborn St #51,Hamel,WA,6215
4,Morris Downing & Sherred,69206 Jackson Ave,Talmalmo,NS,2640
5,"Buelt, David L Esq",808 Glen Cove Ave,Lane Cove,NS,1595
6,Artesian Ice & Cold Storage Co,373 Lafayette St,Cartmeticup,WA,6316
7,Midway Hotel,87 Sylvan Ave,Nyamup,WA,6258
8,"Selsor, Robert J Esq",60562 Ky Rt 321,Bendick Murrell,NS,2803
9,Vincent J Petti & Co,70 S 18th Pl,Purrawunda,QL,4356
10,"Prentiss, Paul F Esq",8839 Ventura Blvd,Blanchetown,SA,5357
11,Public Works Department,3684 N Wacker Dr,Rockside,QL,4343
12,Prudential Lighting Corp,68828 S 32nd St #6,Rosegarland,TA,7140
13,"Wood, J Scott Esq",43157 Cypress St,Ringwood,QL,4343
14,Swanson Peterson Fnrl Home Inc,6 S Hanover Ave,Maylands,WA,6931
15,Old Cider Mill Grove,27916 Tarrytown Rd,Wooloowin,QL,4030
16,Cooper Myers Y Co,79620 Timber Dr,Arthurville,NS,2820
17,Angelo International,387 Airway Cir #62,Mapleton,QL,4560
18,"Blackley, William J Pa",570 W Pine St,Tuggerawong,NS,2259
19,Phoenix Phototype,823 Fishers Ln,Red Hill,AC,2603
20,Quartzite Processing Inc,4 Brookcrest Dr #7786,Inverlaw,QL,4610
21,Biltmore Textile Co Inc,72 Wyoming Ave,Eugowra,NS,2806
22,Gateway Refrigeration,754 Sammis Ave,Kotara Fair,NS,2289
23,Anchorage Yamaha,660 N Green St,Burpengary,QL,4505
24,Wynns Precision Inc Az Div,970 Waterloo Rd,Ellis Beach,QL,4879
25,Paragon Cable Tv,4129 Abbott Dr,Fish Creek,VI,3959
26,Eagle Computer Services Inc,1529 Prince Rodgers Ave,Kennedy,QL,4816
27,Kansas Association Ins Agtts,2 N Valley Mills Dr,Cape Portland,TA,7264
28,"Di Giacomo, Richard F Esq",50968 Kurtz St #45,Warra,QL,4411
29,"Butler, Frank B Esq",71585 S Ayon Ave #9,Wanguri,NT,810
30,Alphagraphics Printshops,8 Old County Rd #3,Alvie,VI,3249
31,Voyager Travel Service,13904 S 35th St,Wherrol Flat,NS,2429
32,N Amer Plast & Chemls Co Inc,6149 Kapiolani Blvd #6,Placid Hills,QL,4343
33,D L Downing General Contr Inc,95431 34th Ave #62,Nedlands,WA,6909
34,Community Insurance Agy Inc,25 Swift Ave,Auchenflower,QL,4066
35,House Of Ing,14304 Old Alexandria Ferry Rd,Buninyong,VI,3357
36,Vei Inc,1585 Salem Church Rd #59,Dangar Island,NS,2083
37,"Hanna, Robert J Esq",75962 E Drinker St,Sunny Nook,QL,4605
38,Design Rite Homes Inc,8978 W Henrietta Rd,Minden,QL,4311
39,State Library,86 Worth St #272,Tibradden,WA,6532
40,Vista Grande Baptist Church,15 Campville Rd #191,Clermont,QL,4721
41,Poole Publications Inc,3 N Ridge Ave,Kadina,SA,5554
42,Affilated Consulting Group Inc,3713 Poway Rd,Sawtell,NS,2452
43,Northwestern Mutual Life Ins,1 E 17th St,East Gosford,NS,2250
44,Barrett Burke Wilson Castl,5 Liberty Ave,Fosterville,VI,3557
45,Helricks Inc,404 Broxton Ave,Bateau Bay,NS,2261
46,"Wynn, Mary Ellen Esq",4 S Main St #285,Glenmoral,QL,4719
47,Mackraft Signs,1255 W Passaic St #1553,Bolivia,NS,2372
48,Ansaring Answering Service,377 Excalibur Dr,East Melbourne,VI,3002
49,Joiner & Goudeau Law Offices,7 Wilshire Blvd,Taringa,QL,4068
50,"Cox, J Thomas Jr",7 Hugh Wallis Rd,Koolan Island,WA,6733
51,"Bill, Michael M",7177 E 14th St,Maleny,QL,4552
52,A B C Tank Co,67765 W 11th St,Yelverton,WA,6280
53,"Jolley, Mark A Cpa",99968 Merced St #79,Flinders,NS,2529
54,Melco Embroidery Systems,40 E 19th Ave,Empire Bay,NS,2257
55,Witchs Brew,84826 Plaza Dr,Rose Bay North,NS,2030
56,Funding Equity Corp,20214 W Main St,Macks Creek,VI,3971
57,Saturn Of Delray,8039 Howard Ave,East Toowoomba,QL,4350
58,Motel 6,8 Austin Bluffs Pky,Bimbijy,WA,6472
59,Ultimate In Womens Apparel The,96605 Pioneer Rd,Kundabung,NS,2441
60,"Ballinger, Maria Chan Esq",6 Hope Rd #10,Pinnacle,QL,4741
61,N E Industrial Distr Inc,65898 E St Nw,Watsonville,QL,4887
62,"Joondeph, Jerome J Esq",39 Broad St,Seaforth,NS,2092
63,Art In Forms,654 Seguine Ave,White Hills,TA,7258
64,Central Hudson Ent Corp,78 31st St,Bellangry,NS,2446
65,"Marscher, William F Iii",35673 Annapolis Rd #190,Ascot,QL,4359
66,"Smith, Sean O Esq",98247 Russell Blvd,Stafford Heights,QL,4053
67,Maverik Country Stores Inc,3 S Willow St #82,Bygalorie,NS,2669
68,United Christian Cmnty Crdt Un,199 Maple Ave,Boolaroo,NS,2284
69,"Radecker, H Philip Jr",423 S Navajo St #56,Brookhill,QL,4816
70,"Cullen, Jack J Esq",5 30w W #3083,Hillston,NS,2675
71,Kszl Am Radio,57245 W Union Blvd #25,Ivanhoe East,VI,3079
72,"Blewett, Yvonne S",971 Northwest Blvd,Caniambo,VI,3630
73,Sheraton Inn Atlanta Northwest,1089 Pacific Coast Hwy,Myrniong,VI,3341
74,"Preston, Anne M Esq",6787 Emerson St,Woolamai,VI,3995
75,A & A Custom Rubber Stamps,8 Middletown Blvd #708,Wardering,WA,6311
76,"Hirsch, Walter W Esq",56 Tank Farm Rd,Kukerin,WA,6352
77,"Jones, Peter B Esq",503 Fulford Ave,Somers,VI,3927
78,Sterling Institute,8275 Calle De Industrias,Wayatinah,TA,7140
79,Cross Western Store,92 South St,Alligator Creek,QL,4740
80,Demer Normann Smith Ltd,56710 Euclid Ave,Camp Mountain,QL,4520
81,Ny Stat Trial Lawyers Assn,5210 E Airy St #2,Brandy Creek,QL,4800
82,"Mann, Charles E Esq",31 Schuyler Ave,Sovereign Hill,VI,3350
83,Airnetics Engineering Co,661 Plummer St #963,Arno Bay,SA,5603
84,American Pie Co Inc,1351 Simpson St,Maffra,VI,3860
85,Brown Chiropractic,2391 Pacific Blvd,Ulverstone,TA,7315
86,Classic Video Duplication Inc,1886 2nd Ave,Wattle Hill,TA,7172
87,Mcclier Corp,52404 S Clinton Ave,Bower,SA,5374
88,Gormley Lore Murphy,405 W Lee St,Stonehaven,VI,3221
89,Thudium Mail Advg Company,5656 N Fiesta Blvd,East Newdegate,WA,6355
90,Jen E Distributing Co,9 Beverly Rd #5,Emerald,VI,3782
91,Re/max Realty Services,96 Armitage Ave,Katunga,VI,3640
92,Roundys Pole Fence Co,523 N Prince St,Willunga,SA,5172
93,Chadds Ford Winery,6926 Orange Ave,Two Rocks,WA,6037
94,"Barragar, Anne L Esq",6940 Prospect Pl,Caldwell,NS,2710
95,Kvoo Radio,52347 San Fernando Rd,Coppabella,QL,4741
96,"Donovan, William P Esq",5399 Mcwhorter Rd,Calala,NS,2340
97,Overseas General Business Co,7 Hall St,Nambucca Heads,NS,2448
98,Nilad Machining,5 W Allen St,Mccullys Gap,NS,2333
99,"Byrne, Beth Hobbs",15126 Goldenwest St,Toowoomba South,QL,4350
100,"Dileo, Lucille A Esq",94 I 55s S,Applecross,WA,6953
101,First Express,288 N 168th Ave #266,Camberwell West,VI,3124
102,Elbin Internatl Baskets,5 Richmond Ct,North Perth,WA,6906
103,Multiform Business Printing,28 Aaronwood Ave Ne,Coombell,NS,2470
104,Jin Shin Travel Agency,39701 6th Ave #1485,Pacific Heights,QL,4703
105,Electra Gear Divsn Regal,35662 S University Blvd,Guildford,WA,6935
106,Sparta Home Center,73 Dennison St #70,Herron,WA,6210
107,R A C E Enterprises Inc,9591 Bayshore Rd #637,Mirrool,NS,2665
108,Jersey Wholesale Fence Co Inc,57 N Weinbach Ave,Bundaberg West,QL,4670
109,"Ryan, Barry M Esq",286 Santa Rosa Ave,Lane Cove,NS,1595
110,"Albright, Alexandra W Esq",446 Woodward Ave #1,Reservoir,VI,3073
111,Gazette Record,1 Jenks Ave,Upper Kedron,QL,4055
112,Cochnower Pest Control,7 Valley Blvd,Buchan,VI,3885
113,Als Village Stationers,42741 Anania Dr,Beltana,SA,5730
114,A B C Pattern & Foundry Co,5 Shakespeare Ave,Kingswood,SA,5062
115,Gaddis Court Reporting,245 5th Ave,Nicholls Rivulet,TA,7112
116,Howard Johnson,2 Gateway Ctr,Upper Mount Gravatt,QL,4122
117,Sunrise Cirby Animal Hospital,3175 Northwestern Hwy,Ridgley,TA,7321
118,Braid Electric Co,8 S Plaza Dr,Tubbut,VI,3888
119,"Lisko, Roy K Esq",8 Collins Ave,Collingullie,NS,2650
120,House Of Ing,9526 Lincoln St,Munno Para,SA,5115
121,"Hassanein, Nesa E Esq",406 E 4th St,Tyagarah,NS,2481
122,Frasier Karen L Kolligs,361 Via Colinas,Redgate,WA,6286
123,Arc Of Montgomery County Inc,94 S Jefferson Rd,Modewarre,VI,3240
124,"Redington, Thomas P Esq",8961 S Central Expy,Stirling Range National Park,WA,6338
125,Milwaukee Courier Inc,7 Wiley Post Way,Trowutta,TA,7330
126,Mervis Steel Co,60 S 4th St,Rouse Hill,NS,2155
127,M Sorkin Sanford Associates,6 Lafayette St #3034,Wyandra,QL,4489
128,Low Country Kitchen & Bath,35 Jefferson Ave,Goondi Hill,QL,4860
129,Spieker Properties,3492 88th St,Hill River,WA,6521
130,Walker & Brehn Pa,20 Sw 28th Ter,Fairview Park,SA,5126
131,U Stor,6 Argyle Rd,Bar Beach,NS,2300
132,"Moorhead, Michael D Esq",438 E Reynolds Rd #239,University Of Tasmania,TA,7005
133,R M Sloan Co Inc,47 Hall St,Regent West,VI,3072
134,Star Limousine,17720 Beach Blvd,Oxley,QL,4075
135,Pioneer Telephone Paging,8 2nd St,Don,TA,7310
136,Communication Buildings Amer,490 Court St,Nyora,VI,3987
137,Components & Equipment Co,1456 Hill Rd,Croydon,QL,4871
138,Grand Rapids Right To Life,6 7th St,Scottsdale,TA,7260
139,Martin Nighswander & Mitchell,29 Nottingham Way #926,Montrose,VI,3765
140,Barter Systems Inc,8818 Century Park E #33,Oak Park,VI,3046
141,W R Grace & Co,4 Commerce Center Dr,Nailsworth,SA,5083
142,"Davis, J Mark Esq",979 S La Cienega Blvd #627,Tarong,QL,4615
143,Roswell Honda Partners,9181 E 26th St,Kensington Park,SA,5068
144,Era Mclachlan John Morgan Real,8855 North Ave,Ashmore,QL,4214
145,"Vaughan, James J Esq",4 Spinning Wheel Ln,Granya,VI,3701
146,Wzyx 1440 Am,5905 S 32nd St,Alexandra,VI,3714
147,Amercn Spdy Printg Ctrs Ocala,514 Glenn Way,Wirrulla,SA,5661
148,A & D Pallet Co,708 S Wilson Way,Weymouth,TA,7252
149,Nationwide Insurance,16949 Harristown Rd,Summer Hill,NS,2287
150,"Gallagher, Owen Esq",9 13th Ave S,Shailer Park,QL,4128
151,Thomas Somerville Co,1 Rock Island Rd #8,Bell,NS,2786
152,Unr Rohn,1554 Bracken Crk,Licola,VI,3858
153,Cath Lea For Relig & Cvl Rgts,7 10th St W,Walyormouring,WA,6460
154,Eagles Nest,9 Cron Hill Dr,Boronia,VI,3155
155,Epsilon Products Company,82 Tremont St #4,Baddaginnie,VI,3670
156,"Anderson, Julie A Esq",30024 Whipple Ave Nw,Berrilee,NS,2159
157,Oakey & Oakey Abstrct Burnett,900 W Wood St,Barmaryee,QL,4703
158,Pacific Scientific Co,847 Norristown Rd,Longford,TA,7301
159,"Krausert, Diane D Esq",667 S Highland Dr #4,Simson,VI,3465
160,Blaney Sheet Metal,21 W 2nd St,Killabakh,NS,2429
161,"Goodknight, David R",2 W Henrietta Rd #6,Paluma,QL,4816
162,Sullivan & Associates Ltd,82655 Shawnee Mission Pky #5798,Barnawartha,VI,3688
163,American Board Of Surgery,9 Taylor Ave,Holwell,TA,7275
164,Vernon Manor Hotel,62 J St #450,Combienbar,VI,3889
165,Keith Altizer & Company Pa,2 Pennington St,Port Adelaide,SA,5015
166,H P Stran & Co,5496 Ne Columbia Blvd,Klemzig,SA,5087
167,Southern National Bank S Car,4244 Lucas Creek Rd,Emu Park,QL,4710
168,American Western Mortgage,79819 Palmetto Ave,Travancore,VI,3032
169,Oxner Vallerie,7 N Glenn Rd,Whetstone,QL,4387
170,Rochelle Cold Storage,61 Center St #8,Corella,QL,4570
171,Mail Boxes Etc,562 Nw Cornell Rd,Humpty Doo,NT,836
172,Xandex Inc,48 General George Patton Dr #8611,Goode Beach,WA,6330
173,"Hander, Deborah G Esq",9 W Passaic St,Heidelberg Rgh,VI,3081
174,Vinco Furniture Inc,968 Delaware Ave,Waterloo,NS,2017
175,Stamp House,548 Charmonie Ln,Minyip,VI,3392
176,Burton & Davis,91114 Grand Ave,Hunchy,QL,4555
177,"Maier, Kristine M",44 Bush St,Grosvenor Place,NS,1220
178,J M Edmunds Co Inc,6 Mahler Rd,Pacific Paradise,QL,4564
179,Art Concepts,1 E Main St,Hungerford,QL,4493
180,"Richards, Don R Esq",58 State St #998,Boya,WA,6056
181,B & B Environmental Inc,11408 Green St,Elizabeth West,SA,5113
182,Printing Delite,297 8th Ave S #9,Gumly Gumly,NS,2652
183,Weil Mclain Co,1 Wyckoff Ave,Wilmington,SA,5485
184,"Jones, Andrew D Esq",8 E North Ave,Pagewood,NS,2035
185,South Adams Savings Bank,13386 Tamarco Dr #20,Tawonga,VI,3697
186,Universal Granite & Marble Inc,70 W Market St #20,Hamlyn Heights,VI,3215
187,Imagelink,53247 Montgomery St #36,Southtown,QL,4350
188,Wrrr Fm,9495 Central Hwy #66,East Bowes,WA,6535
189,Lord Aeck & Sargent Architects,2 Route 9,Blue Haven,NS,2262
190,Dalbec Agency Inc,75700 Academy Rd,Cramphorne,WA,6420
191,Reese Press Inc,6 Monte Ave,Beelbi Creek,QL,4659
192,"Stokes, Fred J Esq",5 France Ave S,Tanbar,QL,4481
193,"Slachter, David Esq",803 Tupper Ln,Ringwood,VI,3134
194,Girling Health Care Inc,43 Nolan St,Battery Point,TA,7004
195,Welders Supply Service Inc,6 W 39th St,Milton,NS,2538
196,"Engelbrecht, William H Esq",910 21st St,Laura,QL,4871
197,Nancy Brandon Realtor,2677 S Jackson St,Kidman Park,SA,5025
198,Flanagan Lieberman Hoffman,6 Central Ave #4,Woodville,SA,5011
199,Walter W Lawrence Ink,564 Almeria Ave #7474,Pedler Creek,SA,5171
200,Ship It Packaging Inc,4 Grand St,Muckleford South,VI,3462
201,Malsbary Mfg Co,9 Hamilton Blvd #299,Sydney South,NS,1235
202,Independence Marine Corp,50638 Northwest Blvd,Bandy Creek,WA,6450
203,Anthonys,51 Bridge Ave,Carwarp,VI,3494
204,L M H Inc,457 St Sebastian Way #189,Eltham,VI,3095
205,Milgo Industrial Inc,6 Ackerman Rd,Doncaster East,VI,3109
206,"Rogers, Clay M Esq",8 W Lake St #1,Welbungin,WA,6477
207,Usa Asbestos Co,8454 6  17 M At Bradleys,Shenton Park,WA,6008
208,"Voils, Otis V",5 Ellestad Dr,Girraween,NS,2145
209,Oaz Communications,9 N Nevada Ave,Woronora,NS,2232
210,Elan Techlgy A Divsn Mansol,790 E Wisconsin Ave,Woodbury,TA,7120
211,Norfolk County Newton Lung,60481 N Clark St,Lee Point,NT,810
212,Parker Bush & Lane Pc,43 E Main St,Baranduda,VI,3691
213,Stylecraft Corporation,5 Madison St #4651,Police Point,TA,7116
214,"Bennett, Matthew T Esq",85 Nw Frontage Rd,Williamstown,WA,6430
215,Highland Meadows Golf Club,584 Meridian St #997,Civic Square,AC,2608
216,"Nelson, Michael J Esq",28220 Park Avenue W,Taragoola,QL,4680
217,"Henry, Robert J Esq",5 Austin Ave,Charleston,SA,5244
218,Mackraft Signs,481 925n N #959,Kealy,WA,6280
219,Orco State Empl Fed Crdt Un,9 9th St #4,Lillimur,VI,3420
220,"Johnsen, Robert U Esq",56232 Hohman Ave,Officer,VI,3809
221,Abe Goldstein Ofc Furn,3 Wall St #26,Lilli Pilli,NS,2229
222,Roland Ashcroft,63154 Artesia Blvd,Blue Rocks,TA,7255
223,Village Meadows,32 E Poythress St,Westminster,WA,6061
224,Busada Manufacturing Corp,86274 Howell Mill Rd Nw,Karama,NT,812
225,Air Flow Co Inc,25488 Brickell Ave,Ocean Shores,NS,2483
226,Freitag Pc,270 5th Ave,Eastwood,SA,5063
227,Saw Repair & Supply Co,891 Union Pacific Ave #8463,Gloucester,NS,2422
228,Middendorf Meat Quality Foods,4562 Aurora Ave N,Heidelberg Rgh,VI,3081
229,Eagle Plywood & Door Mfrs Inc,4864 N 168th Ave,The Risk,NS,2474
230,"Leigh, Lewis R Esq",7 Elm Ave,Yanco,NS,2703
231,Bare Bones,6508 Adams St #32,Port Fairy,VI,3284
232,"Avila, Edward G Esq",6434 Westchester Ave #28,Queenton,QL,4820
233,Oregon Handling Equip Co,70680 S Rider Trl,Watercarrin,WA,6407
234,"Reynolds, Stephen R Esq",700 Factory Ave #5649,Yeppoon,QL,4703
235,Credit Union Of The Rockies,3 Cherokee St,Bobalong,WA,6320
236,"Sullivan, John M Esq",76542 W Bijou St,Wurdiboluc,VI,3241
237,Henry D Lederman,44009 W 63rd #269,North Dandalup,WA,6207
238,"Burress, S Paige Esq",462 Morris Ave,Seddon,VI,3011
239,Dynetics,1 El Camino Real #603,Hindmarsh,WA,6462
240,West Pac Environmental Inc,92417 Arbuckle Ct,Julia Creek,QL,4823
241,Progressive Machine Co,1 Westpark Dr,Salter Point,WA,6152
242,Berhanu International Foods,5 Montana Ave,Lilydale,QL,4344
243,"Mcmillan, Regina E Esq",6629 Main St,Tea Gardens,NS,2324
244,Central Nebraska Home Care,4 W 18th St,Oxley,VI,3678
245,Unicircuit Inc,95412 16th St #6,Yallah,NS,2530
246,F H Overseas Export Inc,17 Kamehameha Hwy,Cavendish,VI,3314
247,"Musgrave, R Todd Esq",8650 S Valley View Bld #6941,Condobolin,NS,2877
248,Santek Inc,16 Talmadge Rd,West Tamworth,NS,2340
249,Springer Industrial Equip Inc,750 Lancaster Ave,Campsie,NS,2194
250,"Long, Robert B Jr",8808 Northern Blvd,Merrylands,NS,2160
251,"Prusax, Maximilian M Esq",76596 Pleasant Hill Rd,Townsville Milpo,QL,4813
252,Custom Jig Grinding,94 Delta Fair Blvd #2702,Runnymede,QL,4615
253,Senior Village Nursing Home,25 Sw End Blvd #609,Coominya,QL,4311
254,"Mchale, Joseph G Esq",15258 W Charleston Blvd,Aroona,QL,4551
255,Pestmaster Services Inc,75 Ryan Dr #70,Duramana,NS,2795
256,Moorhead Associates Inc,9634 South St,Saltwater River,TA,7186
257,Alb Inc,40490 Morrow St,Bluff,QL,4702
258,Atrium Marketing Inc,9 Commerce Cir,Kingaroy,QL,4610
259,Machine Design Service Inc,190 34th St #8,Nangetty,WA,6522
260,Mcwhirter Realty Corp,1036 Malone Rd,Uarbry,NS,2329
261,National Mortgage Co,398 Fort Campbell Blvd #923,Cudgera Creek,NS,2484
262,"Alvis, John W Esq",2799 Cajon Blvd,East Nanango,QL,4615
263,Community Health Law Project,302 N 10th St #3896,Oakleigh South,VI,3167
264,Highway Rentals Inc,79346 Firestone Blvd,Gununa,QL,4871
265,Rapid Reproductions Printing,37564 Grace Ln,Salamander Bay,NS,2317
266,Autocrat Inc,470 W Irving Park Rd,Bundaberg North,QL,4670
267,Venino And Venino,6 Jefferson St,Middleton,SA,5213
268,Corporex Companies Inc,1758 Park Pl,Eaglemont,VI,3084
269,Economy Stainless Supl Co Inc,7659 Market St,Premer,NS,2381
270,Dgstv Diseases Cnslnts,95830 Webster Dr,Trott Park,SA,5158
271,Broaches Inc,26 Old William Penn Hwy,Boynewood,QL,4626
272,Woods Manufactured Housing,343 E Main St,Maraylya,NS,2765
273,Theos Software Corp,8 Cabot Rd,Wayville,SA,5034
274,Stanco Metal Products Inc,8 Allied Dr,Burnside,WA,6285
275,Xyvision Inc,26921 Vassar St,Daradgee,QL,4860
276,Carrera Casting Corp,9 Old York Rd #418,Weetulta,SA,5573
277,Asian Jewelry,12398 Duluth St,Auburn,NS,1835
278,Southwark Corporation,960 S Arroyo Pkwy,South Hobart,TA,7004
279,Kdhl Am Radio,53 Euclid Ave,Forbes,NS,2871
280,"Kelly, Charles G Esq",700 Wilmson Rd,Forest Reefs,NS,2798
281,Fennessey Buick Inc,466 Hillsdale Ave,Rocklands,VI,3401
282,Apex Bottle Co,86351 Pine Ave,Oaklands Park,SA,5046
283,Shamrock Food Service,6139 Contractors Dr #450,Buckland Park,SA,5120
284,Plastic Supply Inc,83 Longhurst Rd,Longwood,SA,5153
285,Gaylord,76 Daylight Way #7,Varsity Lakes,QL,4227
286,Bank Of New York Na,3883 N Central Ave,Appin,NS,2560
287,"Cole, Gary D Esq",75 E Main,Adelaide River,NT,846
288,"Gencheff, Nelson E Do",9 Memorial Pky Nw,Harris Park,NS,2150
289,American General Finance,70086 Division St #3,Kallista,VI,3791
290,"Feutz, James F Esq",4 Middletown Blvd #33,Camena,TA,7316
291,Kwik Kopy Printing & Copying,20907 65s S,Woodberry,NS,2322
292,Borough Clerk,82136 Post Rd,Rocky Gully,WA,6397
293,U S Rentals,3 W Pioneer Dr,Preston Beach,WA,6215
294,Katz Brothers Market Inc,5610 Holliday Rd,Brigalow,QL,4412
295,Grossman Tuchman & Shah,29133 Hammond Dr #1,Beermullah,WA,6503
296,American Inst Muscl Studies,51 Greenwood Ave,Ridgewood,WA,6030
297,Joyces Submarine Sandwiches,327 Ward Pky,Bayles,VI,3981
298,"Domurad, John M Esq",52680 W Hwy 55 #59,Moorabbin Airport,VI,3194
299,Debbies Golden Touch,654 Se 29th St,Waratah West,NS,2298
300,"Johnston, George M Esq",65 Clayton Rd,Cullulleraine,VI,3496
301,Chateau Sonesta Hotel,136 2nd Ave N,Cairns City,QL,4870
302,Superior Trading Co,3 N Michigan Ave,Warding East,WA,6405
303,Breathitt Fnrl Home & Mnmt Co,1607 Laurel St,North Haven,NS,2443
304,Viking Lodge,77818 Prince Drew Rd,Cape Paterson,VI,3995
305,Brown Bear Bait Company,1 Vogel Rd,Cabramatta,NS,2166
306,Pakzad Advertising,5 Main St,Kongorong,SA,5291
307,Jean Barbara Ltd,7696 Carey Ave,Digby,VI,3309
308,"Thurmon, Steven P",76 San Pablo Ave,Sedan,SA,5353
309,"Bussard, Vicki L Esq",767 9th Ave Sw,Braybrook,VI,3019
310,Stamell Tabacco & Schager,82 Hopkins Plz,Inkpen,WA,6302
311,Aztech Controls Inc,64 Prairie Ave,Gillieston Heights,NS,2321
312,Hutchinson Inc,5 Jackson St,Neerabup,WA,6031
313,Curtis & Curtis Inc,705 Stanwix St,Mount Martha,VI,3934
314,"Roane, Matthew H Esq",3318 Buckelew Ave,Appila,SA,5480
315,Best Western Gloucester Inn,38494 Port Reading Ave,Milton,QL,4064
316,Shine,81 Us Highway 9,Etty Bay,QL,4858
317,"Schwartz, Seymour I Md",45 Mountain View Ave,Lower Hermitage,SA,5131
318,American Express Publshng Corp,6 W Meadow St,Degilbo,QL,4621
319,Saratoga Land Office,2 Old Corlies Ave,Eastern Heights,QL,4305
320,"Jaywork, John Terence Esq",5614 Public Sq,Normanville,SA,5204
321,Northbros Co Divsn Natl Svc,6 E Gloria Switch Rd #96,Yorkrakine,WA,6409
322,Psychotherapy Associates,1 Us Highway 206,Kialla East,VI,3631
323,K J N Advertising Inc,5289 Ramblewood Dr,Glen Boughton,QL,4871
324,Automatic Feed Co,5 Aquarium Pl #1,Ongerup,WA,6336
325,Newton Clerk,466 Lincoln Blvd,Clunes,VI,3370
326,Pleasantville Finance Dept,42 United Dr,Pierces Creek,QL,4355
327,Body Part Connection,5920 E Arapahoe Rd,Andergrove,QL,4740
328,Cooper And Raley,2 New Brooklyn Rd,Concord West,NS,2138
329,H T Communications Group Ltd,9 34th Ave #69,Bethania,QL,4205
330,Debbie Reynolds Hotel,32716 N Michigan Ave #82,Barooga,NS,3644
331,"Crew, Robert B Esq",78 Sw Beaverton Hillsdale H,Willetton,WA,6155
332,Reef Encrustaceans,8494 E 57th St,Stratton,WA,6056
333,Reporters Inc,46 Broadway St,Elimbah,QL,4516
334,Arizona Equipment Trnsprt Inc,228 S Tyler St,Emerald,VI,3782
335,Hub Manufacturing Company Inc,2714 Beach Blvd,Changerup,WA,6394
336,Dippin Flavors,3266 Welsh Rd,Varsity Lakes,QL,4227
337,Harfred Oil Co,1 S Maryland Pky,Durham Downs,QL,4454
338,"Wilheim, Kari A Esq",6 De Belier Rue,Bouvard,WA,6210
339,Gilardis Frozen Food,57869 Alemany Blvd,Bentley Dc,WA,6983
340,Ronald Massingill Pc,39 Plummer St,Thornton,NS,2322
341,"Colosi, Darryl J Esq",78717 Graves Ln,Eagle Farm,QL,4009
342,"Tripuraneni, Prabhakar Md",30338 S Dunworth St,Peake,SA,5301
343,Carlyle Abstract Co,6 Walnut St,Chippendale,NS,2008
344,Streator Onized Fed Crdt Un,2244 Franquette Ave,Gorokan,NS,2263
345,Valley Hi Bank,9892 Hernando W,Grevillia,NS,2474
346,Pep Boys Manny Moe & Jack,9296 Prince Rodgers Ave,Chatsworth,NS,2469
347,Knights Inn,9 Chandler Ave #355,Bawley Point,NS,2539
348,Telcom Communication Center,173 Howard Ave,Weengallon,QL,4497
349,Bell Electric Co,3216 W Wabansia Ave,Tuggeranong Dc,AC,2901
350,Signs Now,947 W Harrison St #640,Dangar Island,NS,2083
351,Chieftain Four Inc,94843 Trabold Rd #59,Shannon,TA,7030
352,South Carolina State Housing F,8 Lincoln Way W #6698,Greenhills,WA,6302
353,Lucas Cntrl Systems Prod Deeco,262 Montauk Blvd,Cherrybrook,NS,2126
354,J C S Iron Works Inc,5040 Teague Rd #65,Junee,NS,2663
355,Lsr Pokorny Schwartz Friedman,54648 Hylan Blvd #883,Tibradden,WA,6532
356,Branom Instrument Co,7463 Elmwood Park Blvd,Tungkillo,SA,5236
357,"Young, Craig C Md",630 E Plano Pky,Tarawera,QL,4494
358,Midwest Marketing Inc,166 N Maple Dr,Scotts Head,NS,2447
359,"Korolishin, Michael Esq",20 Meadow Ln,Pakenham Upper,VI,3810
360,Perrysburg Animal Care Inc,73 Robert S,Westerway,TA,7140
361,Hospitality Design Group,512 E Idaho St,Burrier,NS,2540
362,Ciba Geigy Corp,98021 Harwin Dr,East Nabawa,WA,6532
363,"Robinson, Michael C Esq",892 Sw Broadway #8,Millers Point,NS,2000
364,"De Woskin, Alan E Esq",192 N Sheffield Ave,Bunya Mountains,QL,4405
365,Alumi Span Inc,5 Columbia Pike,Mayfield East,NS,2304
366,M C Publishing,35983 Daubert St,Verges Creek,NS,2440
367,Phoenix Marketing Rep Inc,678 S Main St,Hill River,WA,6521
368,Remc South Eastern,532 Saint Marks Ct,Marshdale,NS,2420
369,"Curran, Carol N Esq",1337 N 26th St,Bundall,QL,4217
370,Faber Castell Corporation,556 Bernardo Cent,Mount Nasura,WA,6112
371,Palmetto Food Equipment Co Inc,9561 Chartres St,Parndana,SA,5220
372,Greater Ky Corp,11999 Main St,Dripstone,NS,2820
373,Kajo 1270 Am Radio,495 Distribution Dr #996,Gnotuk,VI,3260
374,"Fried, Monte Esq",49 Walnut St,Yarralumla,AC,2600
375,Dayer Real Estate Group,85 S Washington Ave,Muja,WA,6225
376,On Your Feet,72984 W 1st St,Summerhill,TA,7250
377,South Side Machine Works Inc,3 Ridge Rd W #949,Port Flinders,SA,5495
378,Milner Inn,2 Landmeier Rd,Wombeyan Caves,NS,2580
379,United Mortgage,82 W Market St,Dartnall,WA,6320
380,"Cahill, Steven J Esq",89 N Himes Ave,Dural,NS,2330
381,G Whitfield Richards Co,62296 S Elliott Rd #2,Wandering,WA,6308
382,"Cuzzo, Michael J Esq",8 S Main St,Manjimup,WA,6258
383,Swanson Travel,50808 A Pamalee Dr,Grange,QL,4051
384,"Jackson, Brian C",30691 Poplar Ave #4,Indented Head,VI,3223
385,Fables Gallery,80968 Armitage Ave,Marla,SA,5724
386,Forsyth Steel Co,5 Pittsburg St,Mungabunda,QL,4718
387,"Lally, Lawrence D Esq",812 Berry Blvd #96,Houston,VI,3128
388,Sassy Lassie Dolls,73 12th St,Larrakeyah,NT,820
389,Performance Consulting Grp Inc,27730 American Ave,Docklands,VI,3008
390,"Padrick, Comer W Jr",72 Park Ave,Gabbadah,WA,6041
391,Analytical Laboratories,59215 W 80th St,Morundah,NS,2700
392,Signs Of The Times,186 Geary Blvd #923,Trungley Hall,NS,2666
393,"Brown, Alan Esq",717 Midway Pl,Tawonga,VI,3697
394,Biancas La Petite French Bkry,68 Camden Rd,Kingswood,NS,2550
395,Williams Design Group,175 N Central Ave,Greenslopes,QL,4120
396,Community Communication Servs,80896 South Ave,Grovedale,VI,3216
397,Hampton Inn Hotel,6584 S Bascom Ave #371,Elanora,QL,4221
398,"Hoffman, Carl Esq",64865 Main St,North Fremantle,WA,6159
399,Sonoco Products Co,62171 E 6th Ave,Fyshwick,AC,2609
400,Brattleboro Printing Inc,67729 180th St,Allworth,NS,2425
401,Scientific Agrcltl Svc Inc,7721 Harrison St,Kingsway West,NS,2208
402,Booster Farms,5351 E Thousand Oaks Blvd,Woodford,NS,2463
403,Accent Copy Center Inc,5 Carpenter Ave,Breakaway,QL,4825
404,Mccaffreys Supermarket,374 Sunrise Ave,Gorrie,WA,6556
405,Chemex Labs Ltd,68538 N Bentz St #1451,Koorlong,VI,3501
406,Galaxie Displays Inc,23 S Orange Ave #55,Wardell,NS,2477
407,"Harris, Eric C Esq",4373 Washington St,Bongeen,QL,4356
408,Tarix Printing,61550 S Figueroa St,Waverley,NS,2024
409,Chem Aqua,8 N Town East Blvd,Forrest,VI,3236
410,Kern Valley Printing,2452 Bango Rd,Gundaroo,NS,2620
411,American Speedy Printing Ctrs,8219 Roswell Rd Ne,North Boyanup,WA,6237
412,Doane Products Company,3 Davis Blvd,Mouroubra,WA,6472
413,Jerico Group,1 S Marginal Rd,Flinders University,SA,5042
414,Mortenson Broadcasting Co,78 S Robson,Crows Nest,QL,4355
415,M & M Quality Printing,2749 Van Nuys Blvd,Panmure,VI,3265
416,Georgia Business Machines,722 E Liberty St,Bygalorie,NS,2669
417,"Leo, Frank M",9 Gunnison St,Oakhurst,NS,2761
418,S E M A,2902 Edison Dr #278,Mandurah East,WA,6210
419,Arthur Andersen & Co,72 N Buckeye Ave,Daisy Hill,VI,3465
420,Triangle Engineering Inc,41 E Jackson St,Willetton,WA,6155
421,"Schmidt, Charles E Jr",684 William St,Tarnagulla,VI,3551
422,Emess Professional Svces,185 W Guadalupe Rd,Steels Creek,VI,3775
423,"White, Mark A Cpa",18514 E 4th St #8,Broken Head,NS,2481
424,Vicon Corporation,28 Standiford Ave #6,Bundaberg West,QL,4670
425,Turl Engineering Works,33108 S Yosemite Ct,Port Melbourne,VI,3207
426,Deep Creek Pharmacy,73778 Battery St,Happy Valley,SA,5159
427,Mister Bagel,351 Crooks Rd,Benambra,VI,3900
428,Howard Winig Realty Assocs Inc,8 Glenn Way #3,Brockman,WA,6701
429,"Jordan, Mark D Esq",8 W Virginia St,Amphitheatre,VI,3468
430,Marin Sun Printing,65484 Bainbridge Rd,Penrith,NS,2750
431,"Verde, Louis J Esq",156 Morris St,Darke Peak,SA,5642
432,Convum Internatl Corp,1881 Market St,Mole Creek,TA,7304
433,Thomas Torto Constr Corp,6 Kings St #4790,Emerald Beach,NS,2456
434,Astromatic,9787 Dunksferry Rd,Logan Village,QL,4207
435,Kuhio Photo,13 Blanchard St #996,Coober Pedy,SA,5723
436,Lehigh Furn Divsn Lehigh,2 Pompton Ave,Berowra Heights,NS,2082
437,Okon Inc,2867 Industrial Way,Innaloo,WA,6018
438,"Postlewaite, Jack A Esq",850 Warwick Blvd #58,Leeman,WA,6514
439,Regent Consultants Corp,2 Ellis Rd,East Damboring,WA,6608
440,Hinkson Cooper Weaver Inc,80 Monroe St,Kinglake West,VI,3757
441,Spclty Fastening Systems Inc,71089 Queens Blvd,Canning Vale,WA,6155
442,"Rudolph, William S Cpa",66094 Pioneer Rd,Upper Glastonbury,QL,4570
443,Choo Choo Caboose At Jade Bbq,66 Congress St,Caroline Springs,VI,3023
444,Anthony & Langford,44 105th Ave,Hunchy,QL,4555
445,Shapiro Bag Company,40809 Rockburn Hill Rd,Hamlyn Terrace,NS,2259
446,Lescure Company Inc,9 Green Rd #5877,Darbys Falls,NS,2793
447,"Higgins, Daniel B Esq",63 W 41st Ave #93,Pinnacle,QL,4741
448,Dot Pitch Electronics,2 Stirrup Dr #4907,Carlsruhe,VI,3442
449,Henri D Kahn Insurance,19 Court St,Paulls Valley,WA,6076
450,Test Tools Inc,3 Hwy 61 #2491,Mirani,QL,4754
451,Rachmel & Company Cpa Pa,97539 Connecticut Ave Nw #3586,Buckland,TA,7190
452,Hermann Assocs Inc Safe Mart,59 Murray Hill Pky,Mitta Mitta,VI,3701
453,Palmer Publications Inc,15 W 11mile Rd,Boat Harbour Beach,TA,7321
454,Southern Imperial Inc,709 New Market St,Botany,NS,1455
455,United Water Resources Inc,324 Shawnee Mission Pky,Scaddan,WA,6447
456,"Burke, Jonathan H Esq",37 Saint Louis Ave #292,Lenswood,SA,5240
457,Nurses Ofr Newborns,80289 Victory Ave #9,Farrell Flat,SA,5416
458,Para Laboratories,16 Governors Dr Sw,Melrose,SA,5483
459,New Orleans Credit Service Inc,4 E Aven #284,Freemans Waterhole,NS,2323
460,Signs By Berry,262 8th St,Simpsons Bay,TA,7150
461,"Saum, Scott J Esq",79 State Route 35,Ripponlea,VI,3185
462,"Ulrich, Lawrence M Esq",75 Blackington Ave,North Cascade,WA,6445
463,Stewart Levine & Davis,6 Abbott Rd,Ensay,VI,3895
464,Bark Eater Inn,5159 Saint Ann St,Golden Point,VI,3451
465,"Reich, Richard J Esq",26 Ripley St #5444,Middle Cove,NS,2068
466,Kappus Co,39828 Abbott Rd,Waterfront Place,QL,4001
467,"Terri, Teresa Hutchens Esq",2495 Beach Blvd #557,Buraminya,WA,6452
468,Hong Iwai Hulbert & Kawano,3 Bustleton Ave,Balnagowan,QL,4740
469,Fraser Dante Ltd,7 N 4th St,Lower Cressbrook,QL,4313
470,Die Craft Stamping,1 National Plac #6619,Larrakeyah,NT,820
471,"Sako, Bradley T Esq",248 Academy Rd,Middleton,TA,7163
472,Country Comfort,2 State Hwy,Oak Flats,NS,2529
473,Amberley Suite Hotels,6 W Cornelia Ave,Orange Hill,QL,4455
474,Warren Leadership,461 S Fannin Ave,Welshpool,WA,6106
475,"Alexander, David T Esq",51255 Tea Town Rd #9,Minnenooka,WA,6532
476,Fairfield Inn By Marriott,93 Bloomfield Ave #829,Wagga Wagga South,NS,2650
477,Skyline Lodge & Restaurant,5775 Mechanic St #517,Wansbrough,WA,6320
478,Aviation Design,3 Industrial Blvd,Pintharuka,WA,6623
479,"Malmon, Alvin S Esq",8202 Cornwall Rd,Eumundi,QL,4562
480,Transit Cargo Services Inc,53597 W Clarendon Ave,Halton,NS,2311
481,Comfort Inn Of Revere,577 Cleveland Ave,Glenmore Park,NS,2745
482,Duncan & Associates,259 1st Ave,Mccutcheon,QL,4856
483,Philip Kingsley Trichological,79 Mechanic St,Pimpimbudgee,QL,4615
484,Burlington Homes Of Maine,269 Executive Dr,Ilford,NS,2850
485,"Carson, Scott W Esq",79 Runamuck Pl,Caparra,NS,2429
486,Dewitt Cnty Fed Svngs & Ln,31 Guilford Rd #7904,Duaringa,QL,4712
487,Art Material Services Inc,504 Steve Dr,Weston,NS,2326
488,Consolidated Manufacturing Inc,407 E 57th Ave,Clunes,NS,2480
489,Reliance Credit Union,72 W Ripley Ave,Oakey,QL,4401
490,Sinclair Machine Products Inc,75 Elm Rd #1190,Barton,AC,2600
491,"Kent, Wendy M Esq",32 Broadway St,Lanena,TA,7275
492,"Dixon, Eric D Esq",41 Washington Blvd,Cora Lynn,VI,3814
493,Wood Sign & Banner Co,5 Buford Hwy Ne #3,Allora,QL,4362
494,"Adkins, Russell Esq",6 Flex Ave,Willow Tree,NS,2339
495,Danform Shoe Stores,21058 Massillon Rd,Keilor Downs,VI,3038
496,Antietam Cable Television,28465 Downey Ave #4238,Barringun,QL,4490
497,Lombardi Bros Inc,2803 N Catalina Ave,Pilliga,NS,2388
498,Nathaniel Electronics,22 Livingston Ave,Rhodes,NS,2138
499,"Rodriguez, Joseph A Esq",403 Conn Valley Rd,Castletown,WA,6450
500,"Stilling, William J Esq",5400 Market St,Turill,NS,2850
